{
"type": "FeatureCollection",
"name": "localidad_kennedy",
"features": [
{ "type": "Feature", "properties": { "OBJECTID": 9, "NOMBRE": "KENNEDY", "CODIGO_LOC": "8", "DECRETO": "Acuerdo 8 de 1977", "LINK": null, "SIMBOLO": null, "ESCALA_CAP": null, "FECHA_CAPT": null, "SHAPE_AREA": 3855.8960602799998, "SHAPE_LEN": 31422.417887399999 }, "geometry": { "type": "MultiPolygon", "coordinates": [ [ [ [ 91005.069299999624491, 107357.708000000566244 ], [ 91018.542600000277162, 107350.588500000536442 ], [ 91038.464100000448525, 107338.666500000283122 ], [ 91050.768799999728799, 107328.432000000029802 ], [ 91066.042000000365078, 107323.549000000581145 ], [ 91082.127899999730289, 107314.627000000327826 ], [ 91099.041799999773502, 107299.876900000497699 ], [ 91110.877600000239909, 107286.087899999693036 ], [ 91114.815000000409782, 107275.48619999922812 ], [ 91131.533400000073016, 107256.431500000879169 ], [ 91146.900399999693036, 107244.447000000625849 ], [ 91170.736100000329316, 107223.954500000923872 ], [ 91184.079800000414252, 107231.735700000077486 ], [ 91195.423799999989569, 107236.696599999442697 ], [ 91212.556499999947846, 107245.27449999935925 ], [ 91227.166000000201166, 107252.555400000885129 ], [ 91232.634800000116229, 107261.500800000503659 ], [ 91241.760099999606609, 107281.64919999986887 ], [ 91253.986700000241399, 107297.266000000759959 ], [ 91259.377399999648333, 107312.289599999785423 ], [ 91267.307199999690056, 107326.844000000506639 ], [ 91280.338700000196695, 107338.92989999987185 ], [ 91286.690100000239909, 107358.273499999195337 ], [ 91310.018600000068545, 107378.085799999535084 ], [ 91326.151499999687076, 107385.390300000086427 ], [ 91343.455900000408292, 107380.788499999791384 ], [ 91352.354399999603629, 107378.366399999707937 ], [ 91363.291699999943376, 107375.9679000005126 ], [ 91373.112200000323355, 107381.16330000013113 ], [ 91383.416699999943376, 107388.139799999073148 ], [ 91393.963800000026822, 107396.139599999412894 ], [ 91402.456100000068545, 107406.889499999582767 ], [ 91410.393799999728799, 107420.67850000038743 ], [ 91420.065600000321865, 107437.787599999457598 ], [ 91429.940899999812245, 107458.70160000026226 ], [ 91432.136400000192225, 107485.857799999415874 ], [ 91436.792899999767542, 107498.842000000178814 ], [ 91440.652200000360608, 107514.365199999883771 ], [ 91449.879099999554455, 107526.646500000730157 ], [ 91465.675699999555945, 107520.255799999460578 ], [ 91474.370900000445545, 107514.271299999207258 ], [ 91511.167500000447035, 107491.927300000563264 ], [ 91552.050099999643862, 107486.606499999761581 ], [ 91573.581399999558926, 107488.653200000524521 ], [ 91602.221900000236928, 107489.012299999594688 ], [ 91616.870500000193715, 107493.762099999934435 ], [ 91635.823400000110269, 107498.316600000485778 ], [ 91667.425099999643862, 107505.550799999386072 ], [ 91682.331399999558926, 107510.050699999555945 ], [ 91699.268899999558926, 107513.815999999642372 ], [ 91718.987599999643862, 107518.636099999770522 ], [ 91740.471900000236928, 107523.963899999856949 ], [ 91756.213999999687076, 107521.885900000110269 ], [ 91772.198400000110269, 107521.323200000450015 ], [ 91801.057699999772012, 107524.729000000283122 ], [ 91830.831100000068545, 107516.228800000622869 ], [ 91856.041899999603629, 107506.908399999141693 ], [ 91874.697999999858439, 107495.744100000709295 ], [ 91897.182000000029802, 107481.564300000667572 ], [ 91928.845900000073016, 107463.962300000712276 ], [ 91961.158300000242889, 107454.993300000205636 ], [ 91994.845599999651313, 107437.672800000756979 ], [ 92019.92339999973774, 107418.9695999994874 ], [ 92062.524500000290573, 107398.195499999448657 ], [ 92110.047799999825656, 107369.140799999237061 ], [ 92134.85219999961555, 107352.718699999153614 ], [ 92163.93790000025183, 107338.13230000063777 ], [ 92190.968999999575317, 107326.038399999961257 ], [ 92228.992200000211596, 107305.991200000047684 ], [ 92255.21860000025481, 107297.436200000345707 ], [ 92285.280799999833107, 107285.896999999880791 ], [ 92310.171400000341237, 107282.1546 ], [ 92328.968100000172853, 107279.599799999967217 ], [ 92346.975899999961257, 107279.068199999630451 ], [ 92360.678899999707937, 107277.97440000064671 ], [ 92368.843000000342727, 107274.013499999418855 ], [ 92380.33530000038445, 107267.317999999970198 ], [ 92386.710199999623001, 107264.606899999082088 ], [ 92392.63980000000447, 107256.575600000098348 ], [ 92398.530199999921024, 107252.083499999716878 ], [ 92408.95990000013262, 107249.427200000733137 ], [ 92421.826999999582767, 107254.153599999845028 ], [ 92441.998999999836087, 107263.528300000354648 ], [ 92452.80379999987781, 107270.762499999254942 ], [ 92467.49129999987781, 107272.473500000312924 ], [ 92478.428600000217557, 107269.566999999806285 ], [ 92483.58490000013262, 107262.785800000652671 ], [ 92488.670599999837577, 107241.809200000017881 ], [ 92504.146900000050664, 107223.676300000399351 ], [ 92509.803100000135601, 107214.191800000146031 ], [ 92517.232599999755621, 107204.176200000569224 ], [ 92524.693400000222027, 107196.441899999976158 ], [ 92533.20920000039041, 107190.465299999341369 ], [ 92546.701100000180304, 107194.027599999681115 ], [ 92555.029400000348687, 107206.292999999597669 ], [ 92560.334400000050664, 107219.636600000783801 ], [ 92563.568699999712408, 107230.472500000149012 ], [ 92568.881400000303984, 107244.066400000825524 ], [ 92582.70160000026226, 107251.675499999895692 ], [ 92600.529699999839067, 107256.683299999684095 ], [ 92613.115600000135601, 107251.643999999389052 ], [ 92623.709400000050664, 107248.667400000616908 ], [ 92634.560800000093877, 107246.190400000661612 ], [ 92648.779600000008941, 107247.713800000026822 ], [ 92663.818599999882281, 107252.510600000619888 ], [ 92678.107699999585748, 107257.830800000578165 ], [ 92687.560800000093877, 107262.237099999561906 ], [ 92695.787499999627471, 107268.932099999859929 ], [ 92703.01410000026226, 107275.900900000706315 ], [ 92712.271800000220537, 107283.846000000834465 ], [ 92719.514200000092387, 107291.830299999564886 ], [ 92729.670599999837577, 107307.10359999909997 ], [ 92745.584699999541044, 107318.486300000920892 ], [ 92758.412899999879301, 107327.126800000667572 ], [ 92772.98340000025928, 107334.212500000372529 ], [ 92783.905199999921024, 107349.985799999907613 ], [ 92802.530299999751151, 107356.751199999824166 ], [ 92822.733300000429153, 107367.040100000798702 ], [ 92838.553899999707937, 107373.0945999994874 ], [ 92857.233500000089407, 107382.89919999986887 ], [ 92876.045800000429153, 107386.125399999320507 ], [ 92897.866200000047684, 107387.500199999660254 ], [ 92925.209999999962747, 107386.0 ], [ 92945.584800000302494, 107377.280899999663234 ], [ 92961.65500000026077, 107368.882500000298023 ], [ 92971.326700000092387, 107357.054199999198318 ], [ 92985.498499999754131, 107341.593299999833107 ], [ 93001.310600000433624, 107318.757200000807643 ], [ 93020.880699999630451, 107293.061899999156594 ], [ 93032.825699999928474, 107266.491499999538064 ], [ 93040.536399999633431, 107244.053899999707937 ], [ 93055.075400000438094, 107234.928899999707937 ], [ 93066.551900000311434, 107224.827099999412894 ], [ 93079.598600000143051, 107216.998999999836087 ], [ 93085.442200000397861, 107203.717700000852346 ], [ 93087.121600000187755, 107184.170800000429153 ], [ 93088.684100000187755, 107171.983500000089407 ], [ 93086.855800000019372, 107155.030099999159575 ], [ 93090.144799999892712, 107140.27250000089407 ], [ 93095.660199999809265, 107122.686599999666214 ], [ 93115.347400000318885, 107118.029999999329448 ], [ 93134.862999999895692, 107118.18610000051558 ], [ 93146.503600000403821, 107117.232899999246001 ], [ 93173.870799999684095, 107102.302999999374151 ], [ 93192.206199999898672, 107078.912299999967217 ], [ 93211.385800000280142, 107059.810499999672174 ], [ 93227.424899999983609, 107049.638499999418855 ], [ 93239.627799999900162, 107037.755699999630451 ], [ 93260.854000000283122, 107019.896199999377131 ], [ 93277.611600000411272, 107007.435000000521541 ], [ 93288.775500000454485, 106993.80210000090301 ], [ 93294.697300000116229, 106984.575600000098348 ], [ 93310.884700000286102, 106968.317700000479817 ], [ 93327.853199999779463, 106953.317500000819564 ], [ 93344.392199999652803, 106942.887700000777841 ], [ 93353.501500000245869, 106941.965700000524521 ], [ 93379.954599999822676, 106933.129699999466538 ], [ 93385.688900000415742, 106927.707599999383092 ], [ 93390.884100000374019, 106920.770199999213219 ], [ 93394.45409999974072, 106907.527799999341369 ], [ 93386.110500000417233, 106894.496700000017881 ], [ 93379.922799999825656, 106874.325099999085069 ], [ 93378.352400000207126, 106857.129899999126792 ], [ 93384.719200000166893, 106844.598500000312924 ], [ 93396.359899999573827, 106829.184299999848008 ], [ 93409.461199999786913, 106810.699999999254942 ], [ 93436.453099999576807, 106789.184100000187755 ], [ 93458.226300000213087, 106788.051000000908971 ], [ 93474.085699999704957, 106782.183700000867248 ], [ 93485.90570000000298, 106762.457299999892712 ], [ 93497.678899999707937, 106740.449400000274181 ], [ 93503.42879999987781, 106721.847699999809265 ], [ 93510.725300000049174, 106704.488299999386072 ], [ 93523.795500000007451, 106684.230399999767542 ], [ 93538.006199999712408, 106656.355299999937415 ], [ 93550.646399999968708, 106625.980299999937415 ], [ 93560.240100000053644, 106609.824100000783801 ], [ 93565.739799999631941, 106591.230200000107288 ], [ 93581.458399999886751, 106562.823899999260902 ], [ 93597.950100000016391, 106535.409900000318885 ], [ 93611.660899999551475, 106508.300400000065565 ], [ 93619.441800000146031, 106489.659700000658631 ], [ 93634.300900000147521, 106470.386099999770522 ], [ 93646.957000000402331, 106440.768999999389052 ], [ 93654.776999999769032, 106410.214400000870228 ], [ 93666.987599999643862, 106384.143699999898672 ], [ 93686.838800000026822, 106360.229599999263883 ], [ 93699.299700000323355, 106333.893500000238419 ], [ 93707.861700000241399, 106302.315400000661612 ], [ 93719.119400000199676, 106280.065500000491738 ], [ 93731.087899999693036, 106254.503000000491738 ], [ 93755.103099999949336, 106222.408999999985099 ], [ 93772.352699999697506, 106180.533999999985099 ], [ 93788.649000000208616, 106141.979199999943376 ], [ 93813.734299999661744, 106084.752599999308586 ], [ 93813.710699999704957, 106054.596400000154972 ], [ 93813.898000000044703, 106036.596300000324845 ], [ 93819.48369999974966, 106008.619899999350309 ], [ 93835.678600000217557, 105978.682399999350309 ], [ 93856.522099999710917, 105953.729000000283122 ], [ 93876.615699999965727, 105943.486700000241399 ], [ 93901.428000000305474, 105927.58809999935329 ], [ 93911.974700000137091, 105907.884800000116229 ], [ 93915.083999999798834, 105897.431800000369549 ], [ 93912.919599999673665, 105875.424100000411272 ], [ 93910.661799999885261, 105862.799000000581145 ], [ 93911.685200000181794, 105848.837999999523163 ], [ 93919.395600000396371, 105826.142899999395013 ], [ 93931.270600000396371, 105824.15819999948144 ], [ 93953.747100000269711, 105819.955099999904633 ], [ 93981.559600000269711, 105815.915500000119209 ], [ 94013.934500000439584, 105812.298200000077486 ], [ 94037.739299999549985, 105825.305900000035763 ], [ 94063.809600000269711, 105837.766400000080466 ], [ 94081.497100000269711, 105834.664899999275804 ], [ 94108.520299999974668, 105829.375399999320507 ], [ 94147.160799999721348, 105821.843699999153614 ], [ 94184.269799999892712, 105813.32010000012815 ], [ 94220.332399999722838, 105803.561899999156594 ], [ 94254.839900000020862, 105791.295800000429153 ], [ 94268.167999999597669, 105785.483200000599027 ], [ 94286.597500000149012, 105767.154999999329448 ], [ 94289.964499999769032, 105756.959799999371171 ], [ 94289.050300000235438, 105748.116100000217557 ], [ 94294.979899999685585, 105739.639399999752641 ], [ 94297.331399999558926, 105729.202099999412894 ], [ 94311.401600000448525, 105722.615800000727177 ], [ 94362.432199999690056, 105670.51410000026226 ], [ 94389.135099999606609, 105646.982599999755621 ], [ 94408.142599999904633, 105632.451199999079108 ], [ 94488.876299999654293, 105568.919199999421835 ], [ 94566.38329999987036, 105509.496799999848008 ], [ 94625.781200000084937, 105457.246500000357628 ], [ 94658.851099999621511, 105421.691400000825524 ], [ 94675.64740000013262, 105368.426000000908971 ], [ 94700.967000000178814, 105309.925799999386072 ], [ 94718.489799999631941, 105254.628900000825524 ], [ 94733.629999999888241, 105207.980399999767542 ], [ 94749.770100000314415, 105160.808499999344349 ], [ 94759.683899999596179, 105134.019300000742078 ], [ 94768.558600000105798, 105105.730299999937415 ], [ 94787.276800000108778, 105060.542700000107288 ], [ 94793.612499999813735, 105032.042700000107288 ], [ 94805.526399999856949, 105017.886299999430776 ], [ 94818.713800000026822, 105004.222300000488758 ], [ 94854.853799999691546, 104955.425100000575185 ], [ 94863.416299999691546, 104938.292300000786781 ], [ 94883.134800000116229, 104921.221699999645352 ], [ 94942.299100000411272, 104955.900900000706315 ], [ 94951.095599999651313, 104937.494500000029802 ], [ 94961.978199999779463, 104922.346100000664592 ], [ 95037.157200000248849, 104860.189300000667572 ], [ 95050.656899999827147, 104849.556399999186397 ], [ 95106.398599999956787, 104805.985600000247359 ], [ 95121.148400000296533, 104794.5636 ], [ 95193.671299999579787, 104739.555299999192357 ], [ 95205.725899999961257, 104733.258300000801682 ], [ 95251.80350000038743, 104701.773499999195337 ], [ 95282.318900000303984, 104679.171800000593066 ], [ 95355.755699999630451, 104632.76490000076592 ], [ 95402.372700000181794, 104603.55350000038743 ], [ 95449.215900000184774, 104572.56110000051558 ], [ 95475.457899999804795, 104555.873299999162555 ], [ 95459.059200000017881, 104540.256400000303984 ], [ 95389.043300000019372, 104473.577500000596046 ], [ 95370.347799999639392, 104455.061899999156594 ], [ 95354.293100000359118, 104434.26549999974668 ], [ 95339.488099999725819, 104411.664000000804663 ], [ 95327.636400000192225, 104383.687699999660254 ], [ 94876.494099999777973, 103281.8432 ], [ 94845.946600000374019, 103209.765599999576807 ], [ 94825.696299999952316, 103163.156500000506639 ], [ 94786.85950000025332, 103063.797900000587106 ], [ 94778.007500000298023, 103032.735400000587106 ], [ 94337.745199999772012, 101601.938500000163913 ], [ 94295.478600000031292, 101493.525299999862909 ], [ 94278.157700000330806, 101440.259899999946356 ], [ 94258.204199999570847, 101396.689799999818206 ], [ 94206.86739999987185, 101292.714099999517202 ], [ 94148.147900000214577, 101186.824100000783801 ], [ 93364.857400000095367, 99998.045499999076128 ], [ 93351.583800000138581, 99961.2956000007689 ], [ 93336.583300000056624, 99917.29590000025928 ], [ 93314.582600000314415, 99851.296499999240041 ], [ 93018.583899999968708, 99904.299100000411272 ], [ 92946.584099999628961, 99912.299699999392033 ], [ 92865.584300000220537, 99915.300499999895692 ], [ 92779.584699999541044, 99916.301300000399351 ], [ 92706.584599999710917, 99908.301899999380112 ], [ 92620.58490000013262, 99901.302699999883771 ], [ 92499.452200000174344, 99879.225999999791384 ], [ 92470.053700000047684, 99871.21059999987483 ], [ 92440.39740000013262, 99862.92960000038147 ], [ 92363.014899999834597, 99855.930299999192357 ], [ 92295.73369999974966, 99859.13429999910295 ], [ 92201.023199999704957, 99865.752299999818206 ], [ 92124.08600000012666, 99870.682800000533462 ], [ 92051.195600000210106, 99878.683399999514222 ], [ 91819.305700000375509, 99907.427699999883771 ], [ 91764.938699999824166, 99916.287599999457598 ], [ 91705.236100000329316, 99939.991100000217557 ], [ 91718.611299999989569, 99973.873800000175834 ], [ 91721.931800000369549, 99979.826799999922514 ], [ 91725.587899999693036, 99985.584699999541044 ], [ 91729.572399999946356, 99991.123700000345707 ], [ 91733.869300000369549, 99996.420299999415874 ], [ 91738.455099999904633, 100001.467199999839067 ], [ 91743.330099999904633, 100006.232899999246001 ], [ 91748.470999999903142, 100010.717199999839067 ], [ 91753.861600000411272, 100014.904500000178814 ], [ 91759.478799999691546, 100018.764000000432134 ], [ 91765.314799999818206, 100022.287200000137091 ], [ 91771.345900000073016, 100025.490199999883771 ], [ 91777.541299999691546, 100028.334000000730157 ], [ 91783.893000000156462, 100030.810499999672174 ], [ 91790.385099999606609, 100032.927500000223517 ], [ 91796.979000000283122, 100034.661800000816584 ], [ 91803.658599999733269, 100036.013499999418855 ], [ 91810.416299999691546, 100036.982100000604987 ], [ 91817.213100000284612, 100037.560100000351667 ], [ 91824.025799999944866, 100037.747400000691414 ], [ 91830.767799999564886, 100036.98960000090301 ], [ 91837.470900000073016, 100035.716199999675155 ], [ 91844.095900000073016, 100034.098999999463558 ], [ 91850.627199999988079, 100032.130100000649691 ], [ 91857.048899999819696, 100029.833200000226498 ], [ 91863.338100000284612, 100027.192500000819564 ], [ 91869.486399999819696, 100024.231499999761581 ], [ 91875.462799999862909, 100020.958000000566244 ], [ 91881.267599999904633, 100017.372099999338388 ], [ 91886.876799999736249, 100013.489199999719858 ], [ 91892.275299999862909, 100009.317299999296665 ], [ 91897.447200000286102, 100004.871799999848008 ], [ 91902.376600000075996, 100000.160900000482798 ], [ 91907.056200000457466, 99995.200099999085069 ], [ 91911.548499999567866, 99989.988900000229478 ], [ 91915.892300000414252, 99984.723400000482798 ], [ 91920.103099999949336, 99979.364099999889731 ], [ 91924.196800000034273, 99973.903000000864267 ], [ 91928.15749999973923, 99968.348400000482798 ], [ 91931.985600000247359, 99962.707699999213219 ], [ 91935.68859999999404, 99956.973200000822544 ], [ 91939.25109999999404, 99951.153100000694394 ], [ 91942.673000000417233, 99945.254499999806285 ], [ 91945.962000000290573, 99939.278000000864267 ], [ 91949.11019999999553, 99933.230900000780821 ], [ 91955.618200000375509, 99930.426200000569224 ], [ 91968.47759999986738, 99930.090199999511242 ], [ 91975.235100000165403, 99930.972999999299645 ], [ 91981.86019999999553, 99932.582100000232458 ], [ 91987.649500000290573, 99936.449500000104308 ], [ 91990.36019999999553, 99942.707100000232458 ], [ 91992.196299999952316, 99949.269700000062585 ], [ 91993.133799999952316, 99956.019600000232458 ], [ 91993.15749999973923, 99962.839900000020862 ], [ 91992.25899999961257, 99969.597799999639392 ], [ 91990.454300000332296, 99976.168099999427795 ], [ 91987.78249999973923, 99982.441600000485778 ], [ 91984.290500000119209, 99988.292999999597669 ], [ 91980.009100000374019, 99993.652400000020862 ], [ 91973.259300000034273, 100003.621400000527501 ], [ 91963.157800000160933, 100010.019899999722838 ], [ 91957.986200000159442, 100028.769799999892712 ], [ 91945.963000000454485, 100046.715199999511242 ], [ 91930.400700000114739, 100062.355900000780821 ], [ 91908.494800000451505, 100078.215500000864267 ], [ 91902.322999999858439, 100093.660800000652671 ], [ 91893.807599999941885, 100118.731200000271201 ], [ 91877.956199999898672, 100140.465700000524521 ], [ 91840.011099999770522, 100166.887700000777841 ], [ 91822.659900000318885, 100185.567600000649691 ], [ 91790.387099999934435, 100240.700400000438094 ], [ 91737.934500000439584, 100274.91190000064671 ], [ 91714.770899999886751, 100334.153999999165535 ], [ 91716.740399999544024, 100390.427300000563264 ], [ 91718.818699999712408, 100429.060000000521541 ], [ 91717.834699999541044, 100469.903799999505281 ], [ 91707.811499999836087, 100492.677300000563264 ], [ 91682.311999999918044, 100515.880599999800324 ], [ 91605.874800000339746, 100528.6546 ], [ 91568.851300000213087, 100525.912699999287724 ], [ 91556.804800000041723, 100548.420499999076128 ], [ 91547.523699999786913, 100574.764499999582767 ], [ 91496.485399999655783, 100628.764799999073148 ], [ 91457.493400000035763, 100660.265100000426173 ], [ 91429.142300000414252, 100695.124800000339746 ], [ 91388.400500000454485, 100723.054700000211596 ], [ 91354.306900000199676, 100740.375099999830127 ], [ 91320.783699999563396, 100746.789499999955297 ], [ 91284.502700000070035, 100746.086799999698997 ], [ 91260.901100000366569, 100747.469699999317527 ], [ 91242.120000000111759, 100749.407600000500679 ], [ 91225.580900000408292, 100757.173200000077486 ], [ 91216.635599999688566, 100770.313999999314547 ], [ 91200.269299999810755, 100839.235799999907613 ], [ 91197.628800000064075, 100858.50139999948442 ], [ 91181.839900000020862, 100868.81389999948442 ], [ 90991.739799999631941, 100975.088999999687076 ], [ 90942.349600000306964, 101005.003499999642372 ], [ 90897.592199999839067, 101025.042799999937415 ], [ 90634.952800000086427, 101092.615599999204278 ], [ 90590.343500000424683, 101100.561200000345707 ], [ 90548.406299999915063, 101112.41300000064075 ], [ 90497.351700000464916, 101118.796399999409914 ], [ 90480.945600000210106, 101116.06220000050962 ], [ 90454.50800000037998, 101106.953199999406934 ], [ 90360.601599999703467, 101060.45409999974072 ], [ 90315.015700000338256, 101046.775000000372529 ], [ 90291.312400000169873, 101043.134600000455976 ], [ 90252.117200000211596, 101028.548900000751019 ], [ 90222.031000000424683, 101013.95549999922514 ], [ 90108.523199999704957, 100951.511299999430776 ], [ 90085.734000000171363, 100939.668099999427795 ], [ 90050.178999999538064, 100916.871400000527501 ], [ 90020.093100000172853, 100905.028100000694394 ], [ 89984.538599999621511, 100899.543899999931455 ], [ 89944.421400000341237, 100903.192900000140071 ], [ 89910.69469999987632, 100894.075999999418855 ], [ 89892.46030000038445, 100886.787100000306964 ], [ 89871.491499999538064, 100864.9046 ], [ 89861.46030000038445, 100845.756300000473857 ], [ 89849.608500000089407, 100818.4206000007689 ], [ 89845.05350000038743, 100790.147199999541044 ], [ 89848.693699999712408, 100760.975299999117851 ], [ 89850.521499999798834, 100729.069099999964237 ], [ 89847.786999999545515, 100696.2489 ], [ 89835.935200000181794, 100676.186699999496341 ], [ 89818.614699999801815, 100671.624399999156594 ], [ 89793.083800000138581, 100673.460400000214577 ], [ 89764.826000000350177, 100669.804500000551343 ], [ 89746.591599999926984, 100665.25 ], [ 89729.270999999716878, 100645.195599999278784 ], [ 89718.325500000268221, 100616.031700000166893 ], [ 89717.418999999761581, 100589.578600000590086 ], [ 89725.622000000439584, 100564.055099999532104 ], [ 89735.645200000144541, 100540.351999999955297 ], [ 89742.941599999554455, 100510.266200000420213 ], [ 89736.558600000105798, 100489.297399999573827 ], [ 89727.441300000064075, 100479.26630000025034 ], [ 89713.769399999640882, 100478.360200000926852 ], [ 89697.355499999597669, 100483.828999999910593 ], [ 89670.004099999554455, 100492.946399999782443 ], [ 89632.121500000357628, 100498.368599999696016 ], [ 89589.121500000357628, 100504.040999999269843 ], [ 89540.442099999636412, 100510.189799999818206 ], [ 89517.754599999636412, 100504.987099999561906 ], [ 89488.926699999719858, 100496.479399999603629 ], [ 89440.246700000017881, 100476.159700000658631 ], [ 89391.575000000186265, 100465.761700000613928 ], [ 89365.106100000441074, 100460.558700000867248 ], [ 89348.567200000397861, 100450.644799999892712 ], [ 89324.465400000102818, 100435.988900000229478 ], [ 89310.285899999551475, 100429.379799999296665 ], [ 89291.379599999636412, 100435.989199999719858 ], [ 89264.442400000058115, 100470.966099999845028 ], [ 89256.888000000268221, 100484.676999999210238 ], [ 89246.013000000268221, 100505.466000000014901 ], [ 89241.286700000055134, 100520.591000000014901 ], [ 89235.146499999798834, 100536.184800000861287 ], [ 89229.943500000052154, 100554.614499999210238 ], [ 89233.255900000222027, 100566.903400000184774 ], [ 89246.95920000039041, 100584.379899999126792 ], [ 89263.029799999669194, 100604.715800000354648 ], [ 89282.404600000008941, 100614.629399999976158 ], [ 89304.615799999795854, 100627.394799999892712 ], [ 89324.045500000007451, 100641.715099999681115 ], [ 89349.967299999669194, 100650.355299999937415 ], [ 89389.725300000049174, 100678.010999999940395 ], [ 89413.92879999987781, 100714.307600000873208 ], [ 89422.569600000046194, 100745.424799999222159 ], [ 89415.655799999833107, 100766.174699999392033 ], [ 89391.452899999916553, 100773.081199999898672 ], [ 89370.710799999535084, 100771.355000000447035 ], [ 89334.413900000043213, 100766.175499999895692 ], [ 89306.757699999958277, 100762.714800000190735 ], [ 89229.406299999915063, 100771.785900000482798 ], [ 89195.703300000168383, 100783.020500000566244 ], [ 89121.375599999912083, 100795.989800000563264 ], [ 89111.86780000012368, 100795.122899999842048 ], [ 89102.359899999573827, 100782.162000000476837 ], [ 89080.750300000421703, 100742.404400000348687 ], [ 89081.617200000211596, 100730.302999999374151 ], [ 89088.906000000424683, 100698.990499999374151 ], [ 89091.554299999959767, 100690.560799999162555 ], [ 89093.718299999833107, 100673.967000000178814 ], [ 89095.639999999664724, 100662.881100000813603 ], [ 89099.76480000000447, 100655.107699999585748 ], [ 89098.038200000301003, 100632.631300000473857 ], [ 89090.256799999624491, 100596.342399999499321 ], [ 89075.568599999882281, 100554.8581000007689 ], [ 89038.404400000348687, 100530.655500000342727 ], [ 88984.818599999882281, 100522.882500000298023 ], [ 88925.185999999754131, 100516.828500000759959 ], [ 88895.795400000177324, 100522.883400000631809 ], [ 88875.920800000429153, 100535.8445999994874 ], [ 88869.006799999624491, 100551.399100000038743 ], [ 88874.194299999624491, 100576.469399999827147 ], [ 88871.60120000038296, 100613.625700000673532 ], [ 88881.109000000171363, 100647.336400000378489 ], [ 88912.218700000084937, 100678.44539999961853 ], [ 88945.062599999830127, 100700.054500000551343 ], [ 88988.273599999956787, 100725.11629999987781 ], [ 89024.46129999961704, 100753.944099999964237 ], [ 89038.899000000208616, 100766.38150000013411 ], [ 89045.31319999974221, 100773.607999999076128 ], [ 89052.133600000292063, 100790.451500000432134 ], [ 89056.953900000080466, 100806.490499999374151 ], [ 89057.85259999986738, 100818.037399999797344 ], [ 89057.853500000201166, 100904.451199999079108 ], [ 89048.345900000073016, 100935.560599999502301 ], [ 89022.416699999943376, 100971.865399999544024 ], [ 89005.667000000365078, 101007.0921 ], [ 88998.393299999646842, 100989.974999999627471 ], [ 88991.994699999690056, 100984.287599999457598 ], [ 88982.401200000196695, 100983.576700000092387 ], [ 88973.166799999773502, 100984.287799999117851 ], [ 88944.034099999815226, 100989.616100000217557 ], [ 88926.268500000238419, 100988.553899999707937 ], [ 88915.252799999900162, 100991.038200000301003 ], [ 88907.081100000068545, 100991.03830000013113 ], [ 88899.971699999645352, 100987.13230000063777 ], [ 88892.159099999815226, 100978.968299999833107 ], [ 88880.073300000280142, 100970.077899999916553 ], [ 88865.151300000026822, 100962.616900000721216 ], [ 88849.166899999603629, 100959.42960000038147 ], [ 88831.041899999603629, 100962.265699999406934 ], [ 88810.081199999898672, 100970.078500000759959 ], [ 88793.378200000151992, 100980.734899999573827 ], [ 88780.948900000192225, 100999.219100000336766 ], [ 88775.612900000065565, 101020.883199999108911 ], [ 88777.394500000402331, 101050.023800000548363 ], [ 88784.144700000062585, 101074.882999999448657 ], [ 88795.871299999766052, 101090.539100000634789 ], [ 88811.855800000019372, 101096.929700000211596 ], [ 88824.293200000189245, 101099.413899999111891 ], [ 88846.324599999934435, 101106.163499999791384 ], [ 88868.707399999722838, 101110.788499999791384 ], [ 88868.707399999722838, 101111.13230000063777 ], [ 88892.512099999934435, 101113.624199999496341 ], [ 88897.488499999977648, 101116.4679000005126 ], [ 88904.238499999977648, 101117.538100000470877 ], [ 88917.277599999681115, 101124.4364 ], [ 88915.684200000017881, 101138.233200000599027 ], [ 88917.411000000312924, 101178.857999999076128 ], [ 88916.544099999591708, 101203.05320000089705 ], [ 88907.044200000353158, 101224.662699999287724 ], [ 88892.349200000055134, 101241.951799999922514 ], [ 88876.794700000435114, 101261.826999999582767 ], [ 88869.013700000010431, 101284.29590000025928 ], [ 88865.560899999924004, 101311.952099999412894 ], [ 88868.146900000050664, 101332.694199999794364 ], [ 88872.475200000219047, 101349.982999999076128 ], [ 88884.569099999964237, 101375.045499999076128 ], [ 88904.452100000344217, 101394.061000000685453 ], [ 88920.00690000038594, 101415.662200000137091 ], [ 88927.78830000013113, 101434.677600000053644 ], [ 88930.37459999974817, 101458.013399999588728 ], [ 88926.921699999831617, 101481.357200000435114 ], [ 88920.874800000339746, 101500.365000000223517 ], [ 88843.08739999961108, 101629.131100000813603 ], [ 88744.533699999563396, 101707.827299999073148 ], [ 88722.338399999774992, 101721.631999999284744 ], [ 88635.534400000236928, 101774.906099999323487 ], [ 88621.409699999727309, 101783.617300000041723 ], [ 88572.394399999640882, 101813.867599999532104 ], [ 88519.128999999724329, 101839.024299999698997 ], [ 88493.973100000061095, 101850.860300000756979 ], [ 88483.613900000229478, 101862.704199999570847 ], [ 88477.700000000186265, 101879.469900000840425 ], [ 88476.215599999763072, 101894.759099999442697 ], [ 88475.231399999931455, 101910.548000000417233 ], [ 88472.270700000226498, 101921.38399999961257 ], [ 88467.341099999845028, 101933.235600000247359 ], [ 88457.474200000055134, 101949.50899999961257 ], [ 88441.200899999588728, 101964.798200000077486 ], [ 88420.982300000265241, 101982.556099999696016 ], [ 88415.060600000433624, 101994.88429999910295 ], [ 88426.638899999670684, 102009.063699999824166 ], [ 88430.576399999670684, 102013.8293999992311 ], [ 88447.131000000052154, 102025.610500000417233 ], [ 88483.615600000135601, 102044.875700000673532 ], [ 88509.490600000135601, 102051.734600000083447 ], [ 88548.818500000052154, 102051.609400000423193 ], [ 88577.279500000178814, 102053.80460000038147 ], [ 88602.115299999713898, 102058.2027000002563 ], [ 88618.412399999797344, 102069.9679000005126 ], [ 88633.162499999627471, 102088.60840000025928 ], [ 88633.334300000220537, 102089.225600000470877 ], [ 88653.428399999625981, 102115.78800000064075 ], [ 88666.311300000175834, 102137.256400000303984 ], [ 88690.64740000013262, 102180.20130000077188 ], [ 88693.50719999987632, 102203.107699999585748 ], [ 88682.054299999959767, 102234.592199999839067 ], [ 88666.312400000169873, 102257.49070000089705 ], [ 88641.976800000295043, 102287.561000000685453 ], [ 88617.641200000420213, 102299.00650000013411 ], [ 88603.328300000168383, 102288.991200000047684 ], [ 88567.539099999703467, 102247.47580000013113 ], [ 88551.796500000171363, 102215.983999999240041 ], [ 88533.187199999578297, 102181.63260000012815 ], [ 88500.264600000344217, 102128.679999999701977 ], [ 88450.162499999627471, 102054.235300000756979 ], [ 88401.490699999965727, 102038.493699999526143 ], [ 88392.904900000430644, 102057.110700000077486 ], [ 88378.592699999921024, 102077.134400000795722 ], [ 88352.82730000000447, 102092.884500000625849 ], [ 88328.49129999987781, 102098.611500000581145 ], [ 88308.452600000426173, 102105.767799999564886 ], [ 88295.733799999579787, 102117.580299999564886 ], [ 88300.695000000298023, 102142.416200000792742 ], [ 88313.890599999576807, 102173.728399999439716 ], [ 88319.59389999974519, 102180.955000000074506 ], [ 88323.46100000012666, 102185.627000000327826 ], [ 88327.085900000296533, 102188.470599999651313 ], [ 88333.554800000041723, 102196.494000000879169 ], [ 88351.148599999956787, 102217.579500000923872 ], [ 88352.961500000208616, 102222.235799999907613 ], [ 88363.30530000012368, 102244.87639999948442 ], [ 88363.563099999912083, 102248.493599999696016 ], [ 88357.094499999657273, 102274.243400000035763 ], [ 88340.540199999697506, 102299.079500000923872 ], [ 88333.813699999824166, 102303.360999999567866 ], [ 88320.876400000415742, 102311.626499999314547 ], [ 88300.954499999992549, 102315.634600000455976 ], [ 88282.587299999780953, 102318.486400000751019 ], [ 88249.727900000289083, 102311.884999999776483 ], [ 88232.391999999992549, 102290.541400000452995 ], [ 88221.009200000204146, 102276.830700000748038 ], [ 88204.44620000012219, 102255.744999999180436 ], [ 88185.55559999961406, 102229.745100000873208 ], [ 88180.883500000461936, 102224.229699999094009 ], [ 88175.469600000418723, 102217.839199999347329 ], [ 88151.406999999657273, 102200.636199999600649 ], [ 88144.422600000165403, 102195.979900000616908 ], [ 88128.37569999974221, 102184.339500000700355 ], [ 88108.453599999658763, 102167.386800000444055 ], [ 88099.06290000025183, 102158.629100000485778 ], [ 88095.179999999701977, 102145.808900000527501 ], [ 88079.476800000295043, 102148.246400000527501 ], [ 88067.06290000025183, 102151.293500000610948 ], [ 88063.828700000420213, 102153.613900000229478 ], [ 88060.46129999961704, 102156.457499999552965 ], [ 88058.000500000081956, 102159.566899999976158 ], [ 88056.96929999999702, 102163.441899999976158 ], [ 88056.711600000038743, 102181.559000000357628 ], [ 88056.063299999572337, 102195.980799999088049 ], [ 88055.547799999825656, 102211.184100000187755 ], [ 88055.548000000417233, 102225.730699999257922 ], [ 88055.415199999697506, 102228.707499999552965 ], [ 88055.673200000077486, 102241.972899999469519 ], [ 88055.806099999696016, 102249.223099999129772 ], [ 88055.032800000160933, 102256.262000000104308 ], [ 88054.900000000372529, 102270.168099999427795 ], [ 88054.509499999694526, 102284.863500000908971 ], [ 88054.767400000244379, 102299.668299999088049 ], [ 88054.767599999904633, 102314.347699999809265 ], [ 88055.548999999649823, 102330.972799999639392 ], [ 88057.744300000369549, 102344.621200000867248 ], [ 88055.158699999563396, 102358.527400000020862 ], [ 88054.127600000239909, 102373.081900000572205 ], [ 88052.963700000196695, 102389.183499999344349 ], [ 88053.221699999645352, 102402.058599999174476 ], [ 88051.534300000406802, 102417.636700000613928 ], [ 88049.081100000068545, 102434.527200000360608 ], [ 88048.948599999770522, 102447.011600000783801 ], [ 88047.011199999600649, 102462.472699999809265 ], [ 88046.237999999895692, 102475.988099999725819 ], [ 88046.362900000065565, 102477.542799999937415 ], [ 88045.714599999599159, 102490.800499999895692 ], [ 88045.589599999599159, 102492.995999999344349 ], [ 88045.331899999640882, 102503.097500000149012 ], [ 88059.816200000233948, 102505.362900000065565 ], [ 88077.285099999979138, 102506.331399999558926 ], [ 88096.300699999555945, 102509.112500000745058 ], [ 88114.667600000277162, 102512.018600000068545 ], [ 88132.652200000360608, 102514.541899999603629 ], [ 88156.456699999980628, 102518.994699999690056 ], [ 88176.894199999980628, 102521.401000000536442 ], [ 88179.066200000233948, 102520.517899999395013 ], [ 88251.198900000192225, 102533.767300000414252 ], [ 88286.519100000150502, 102514.634099999442697 ], [ 88293.714100000448525, 102514.087300000712276 ], [ 88310.659400000236928, 102508.844900000840425 ], [ 88328.120299999602139, 102501.797900000587106 ], [ 88334.206100000068545, 102499.336899999529123 ], [ 88338.862300000153482, 102497.539899999275804 ], [ 88348.432599999941885, 102495.649399999529123 ], [ 88363.565399999730289, 102498.18019999936223 ], [ 88382.065499999560416, 102501.8597999997437 ], [ 88401.080900000408292, 102507.875399999320507 ], [ 88420.487300000153482, 102512.343900000676513 ], [ 88437.956000000238419, 102516.023299999535084 ], [ 88460.721800000406802, 102523.468499999493361 ], [ 88475.596599999815226, 102524.694900000467896 ], [ 88493.838999999687076, 102523.077500000596046 ], [ 88512.854299999773502, 102522.624199999496341 ], [ 88531.877799999900162, 102520.616200000047684 ], [ 88546.494800000451505, 102516.678600000217557 ], [ 88550.369900000281632, 102516.022199999541044 ], [ 88568.229100000113249, 102509.490900000557303 ], [ 88575.080599999986589, 102503.928300000727177 ], [ 88583.486800000071526, 102495.842499999329448 ], [ 88596.041199999861419, 102480.256300000473857 ], [ 88602.252100000157952, 102472.232799999415874 ], [ 88608.845900000073016, 102466.990599999204278 ], [ 88614.798799999989569, 102462.2171 ], [ 88626.048799999989569, 102471.32630000077188 ], [ 88643.775600000284612, 102485.623199999332428 ], [ 88659.556800000369549, 102496.232100000604987 ], [ 88660.853699999861419, 102497.716600000858307 ], [ 88677.666299999691546, 102510.333699999377131 ], [ 88697.463399999774992, 102525.794299999251962 ], [ 88712.986800000071526, 102538.403400000184774 ], [ 88720.486899999901652, 102546.036199999973178 ], [ 88717.510499999858439, 102555.801899999380112 ], [ 88707.034099999815226, 102570.106699999421835 ], [ 88692.932500000111759, 102585.942800000309944 ], [ 88678.831199999898672, 102601.92710000090301 ], [ 88669.128200000151992, 102614.286699999123812 ], [ 88664.995600000023842, 102620.489900000393391 ], [ 88658.909599999897182, 102628.700799999758601 ], [ 88656.972299999557436, 102634.911699999123812 ], [ 88660.464399999938905, 102643.645999999716878 ], [ 88663.183400000445545, 102647.263000000268221 ], [ 88674.566300000064075, 102658.325400000438094 ], [ 88693.066200000233948, 102673.129899999126792 ], [ 88709.496100000105798, 102687.825200000777841 ], [ 88724.371100000105798, 102702.371700000017881 ], [ 88739.894799999892712, 102716.926300000399351 ], [ 88756.199599999934435, 102732.379100000485778 ], [ 88772.363699999637902, 102746.550899999216199 ], [ 88786.207600000314415, 102761.105299999937415 ], [ 88801.348299999721348, 102775.144500000402331 ], [ 88818.676500000059605, 102790.472200000658631 ], [ 88835.629700000397861, 102805.542199999094009 ], [ 88855.036100000143051, 102822.557800000533462 ], [ 88871.723600000143051, 102838.924699999392033 ], [ 88885.692599999718368, 102849.330600000917912 ], [ 88901.864400000311434, 102863.502399999648333 ], [ 88906.778599999845028, 102867.627499999478459 ], [ 88919.067699999548495, 102878.049100000411272 ], [ 88927.474100000225008, 102885.556700000539422 ], [ 88933.044300000183284, 102890.21309999935329 ], [ 88928.645899999886751, 102894.424100000411272 ], [ 88928.771099999547005, 102898.299200000241399 ], [ 88927.474200000055134, 102903.861500000581145 ], [ 88922.950799999758601, 102912.721000000834465 ], [ 88915.966400000266731, 102922.486600000411272 ], [ 88905.615299999713898, 102939.111500000581145 ], [ 88897.849600000306964, 102951.603800000622869 ], [ 88891.904400000348687, 102962.213400000706315 ], [ 88888.670199999585748, 102968.088300000876188 ], [ 88883.107599999755621, 102975.721200000494719 ], [ 88878.193799999542534, 102981.674200000241399 ], [ 88878.318799999542534, 102984.650699999183416 ], [ 88880.904600000008941, 102989.502399999648333 ], [ 88885.303299999795854, 102993.713300000876188 ], [ 88903.154699999839067, 103004.767699999734759 ], [ 88921.272099999710917, 103015.697200000286102 ], [ 88941.194099999964237, 103029.35329999960959 ], [ 88959.170800000429153, 103041.69679999910295 ], [ 88974.826999999582767, 103051.727800000458956 ], [ 88994.881699999794364, 103064.470000000670552 ], [ 89001.733199999667704, 103068.868300000205636 ], [ 89008.202100000344217, 103074.430500000715256 ], [ 89006.132000000216067, 103079.922800000756979 ], [ 89000.444500000216067, 103093.055600000545382 ], [ 88995.397900000214577, 103108.25899999961257 ], [ 88990.350999999791384, 103123.329199999570847 ], [ 88985.437300000339746, 103139.305600000545382 ], [ 88980.64809999987483, 103153.086799999698997 ], [ 88975.16399999987334, 103164.1886 ], [ 88958.43819999974221, 103235.602600000798702 ], [ 88937.119400000199676, 103398.305500000715256 ], [ 88925.901600000448525, 103491.46169999986887 ], [ 88924.776800000108778, 103507.172700000926852 ], [ 88897.285400000400841, 103593.008500000461936 ], [ 88881.575000000186265, 103665.961500000208616 ], [ 88870.349100000225008, 103700.73509999923408 ], [ 88844.544900000095367, 103761.336799999698997 ], [ 88832.201399999670684, 103788.2820999994874 ], [ 88777.77309999987483, 103919.00899999961257 ], [ 88719.423100000247359, 104051.431099999696016 ], [ 88638.065399999730289, 104232.673499999567866 ], [ 88598.785099999979138, 104317.947000000625849 ], [ 88588.691499999724329, 104335.900399999693036 ], [ 88350.79079999960959, 104846.502800000831485 ], [ 88221.176500000059605, 105115.269099999219179 ], [ 88093.812199999578297, 105391.878799999132752 ], [ 87997.629099999554455, 105621.791300000622869 ], [ 88041.190299999900162, 105616.011900000274181 ], [ 88093.100499999709427, 105628.381599999964237 ], [ 88168.240600000135601, 105678.290500000119209 ], [ 88247.101099999621511, 105742.809800000861287 ], [ 88324.051599999889731, 105806.038899999111891 ], [ 88378.88190000038594, 105858.998199999332428 ], [ 88430.432500000111759, 105929.687599999830127 ], [ 88510.23340000025928, 106046.82660000026226 ], [ 88547.054299999959767, 106141.526000000536442 ], [ 88572.154600000008941, 106184.145600000396371 ], [ 88618.104899999685585, 106238.315099999308586 ], [ 88666.735100000165403, 106268.414499999955297 ], [ 88747.635099999606609, 106309.48340000025928 ], [ 88807.645299999974668, 106344.093000000342727 ], [ 88881.495799999684095, 106397.80210000090301 ], [ 88898.485799999907613, 106418.821900000795722 ], [ 89006.536299999803305, 106477.810799999162555 ], [ 89068.765800000168383, 106460.440199999138713 ], [ 89135.435499999672174, 106443.729699999094009 ], [ 89191.685800000093877, 106471.979000000283122 ], [ 89239.436300000175834, 106542.008400000631809 ], [ 89270.906700000166893, 106580.238099999725819 ], [ 89312.536799999885261, 106614.097500000149012 ], [ 89393.387000000104308, 106664.676500000059605 ], [ 89443.177500000223517, 106711.896099999547005 ], [ 89477.247399999760091, 106738.72550000064075 ], [ 89532.927500000223517, 106755.554999999701977 ], [ 89560.567400000058115, 106753.404799999669194 ], [ 89585.577499999664724, 106751.444599999114871 ], [ 89635.717199999839067, 106741.614000000059605 ], [ 89683.426799999549985, 106716.543800000101328 ], [ 89750.316100000403821, 106664.333100000396371 ], [ 89793.555800000205636, 106643.042700000107288 ], [ 89846.185600000433624, 106640.832200000062585 ], [ 89964.095399999991059, 106644.081299999728799 ], [ 89996.995500000193715, 106654.430700000375509 ], [ 90045.615699999965727, 106686.43019999936223 ], [ 90069.856300000101328, 106764.560000000521541 ], [ 90090.456799999810755, 106817.309499999508262 ], [ 90102.757299999706447, 106878.879300000146031 ], [ 90098.717899999581277, 106916.899399999529123 ], [ 90107.278099999763072, 106968.299100000411272 ], [ 90122.228699999861419, 107012.138900000602007 ], [ 90139.238699999637902, 107029.35869999974966 ], [ 90157.558699999935925, 107040.878499999642372 ], [ 90187.368700000457466, 107038.528100000694394 ], [ 90220.428299999795854, 107023.507799999788404 ], [ 90234.548299999907613, 106994.437699999660254 ], [ 90265.197700000368059, 106959.11769999936223 ], [ 90304.117200000211596, 106918.787399999797344 ], [ 90348.596900000236928, 106903.846899999305606 ], [ 90398.086799999698997, 106895.906500000506639 ], [ 90409.966799999587238, 106904.296299999579787 ], [ 90475.107099999673665, 106950.265599999576807 ], [ 90496.487399999983609, 106978.295399999246001 ], [ 90513.357599999755621, 107019.605100000277162 ], [ 90519.358300000429153, 107074.794999999925494 ], [ 90516.498700000345707, 107126.134899999946356 ], [ 90514.859400000423193, 107186.984699999913573 ], [ 90516.320000000298023, 107259.9046 ], [ 90515.390399999916553, 107305.544399999082088 ], [ 90528.470800000242889, 107344.294099999591708 ], [ 90540.321100000292063, 107376.073999999091029 ], [ 90565.501299999654293, 107405.393600000068545 ], [ 90592.631400000303984, 107427.103499999269843 ], [ 90628.811300000175834, 107420.352900000289083 ], [ 90654.201000000350177, 107415.442900000140071 ], [ 90709.490699999965727, 107393.592299999669194 ], [ 90751.460400000214577, 107373.562000000849366 ], [ 90811.169999999925494, 107354.281600000336766 ], [ 90943.159500000067055, 107334.800200000405312 ], [ 90977.969600000418723, 107343.25 ], [ 91005.069299999624491, 107357.708000000566244 ] ] ] ] } }
]
}
