{
"type": "FeatureCollection",
"name": "Upz",
"crs": { "type": "name", "properties": { "name": "urn:ogc:def:crs:EPSG::4686" } },
"features": [
{ "type": "Feature", "properties": { "UPlCodigo": "UPZ83", "UPlTipo": 1, "UPlNombre": "LAS MARGARITAS", "UPlAAdmini": null, "UPlArea": 148.249268844, "SHAPE_Leng": 0.05809272394, "SHAPE_Area": 146.30766722800001 }, "geometry": { "type": "MultiPolygon", "coordinates": [ [ [ [ -74.170773341999904, 4.628482095 ], [ -74.171405420999889, 4.62811132000005 ], [ -74.172622990999912, 4.627624075000059 ], [ -74.173256198999908, 4.627380626000077 ], [ -74.174105822999948, 4.627053982000051 ], [ -74.176211367999898, 4.626177864000036 ], [ -74.177057470999927, 4.625847684000073 ], [ -74.177201153999903, 4.626947670000048 ], [ -74.177302248999922, 4.627789750000089 ], [ -74.177312388999965, 4.627931767000026 ], [ -74.177560083999936, 4.62870766900001 ], [ -74.177701642999935, 4.629367123000039 ], [ -74.177802789999944, 4.629681452000023 ], [ -74.177815529999933, 4.629711537000025 ], [ -74.178035276999907, 4.630229250000051 ], [ -74.178146486999964, 4.630472817000042 ], [ -74.17863687299986, 4.631654498000026 ], [ -74.179162590999923, 4.632851501000035 ], [ -74.179895600999913, 4.634489807000053 ], [ -74.179949305999912, 4.634606753000048 ], [ -74.180249506999886, 4.635260620000059 ], [ -74.180340444999857, 4.635422904000075 ], [ -74.18146102631826, 4.637835850531902 ], [ -74.181829561999876, 4.638629453000087 ], [ -74.182483887999936, 4.640038381000045 ], [ -74.183651694999924, 4.642467829000063 ], [ -74.184440752999933, 4.644187058000027 ], [ -74.184472991999925, 4.644257323000067 ], [ -74.184799244999923, 4.644968178000086 ], [ -74.185576912999878, 4.646833096000114 ], [ -74.185317367777145, 4.647000046131611 ], [ -74.185273423336881, 4.646994198611454 ], [ -74.184805771503264, 4.647106039810689 ], [ -74.184128859743282, 4.647557226824395 ], [ -74.183418436924484, 4.64814048539739 ], [ -74.182725219532202, 4.648712079631201 ], [ -74.182231277403403, 4.64919082945312 ], [ -74.182037158006494, 4.649457946543256 ], [ -74.180383022999919, 4.646396101000017 ], [ -74.179991246999919, 4.645670842000049 ], [ -74.1797774099999, 4.645260118000083 ], [ -74.179143432999936, 4.644051680000105 ], [ -74.178917983999938, 4.643654023000066 ], [ -74.178502351999924, 4.642920994000077 ], [ -74.17841683099995, 4.642756380000046 ], [ -74.178211301999909, 4.642360486000063 ], [ -74.177333793999964, 4.640711874000081 ], [ -74.176474449999915, 4.639108387000102 ], [ -74.175750317999942, 4.637730316000033 ], [ -74.175246286999894, 4.636778646000073 ], [ -74.175188078999966, 4.63667031500008 ], [ -74.174725012999929, 4.635808049000056 ], [ -74.174450298999943, 4.635296551000101 ], [ -74.174071415999947, 4.634578349 ], [ -74.173606733999961, 4.63369743800004 ], [ -74.173119669999977, 4.63277415400003 ], [ -74.172884654999891, 4.632328685000031 ], [ -74.171346967999938, 4.62941568900006 ], [ -74.170773341999904, 4.628482095 ] ] ] ] } },
{ "type": "Feature", "properties": { "UPlCodigo": "UPZ81", "UPlTipo": 1, "UPlNombre": "GRAN BRITALIA", "UPlAAdmini": "Dec 217 de 2005", "UPlArea": 182.13564839, "SHAPE_Leng": 0.06921748114, "SHAPE_Area": 179.758807123 }, "geometry": { "type": "MultiPolygon", "coordinates": [ [ [ [ -74.170644610999915, 4.628272566000069 ], [ -74.170352033999862, 4.628063748000022 ], [ -74.170143273999912, 4.62768098700006 ], [ -74.170123215999936, 4.627644125000119 ], [ -74.169918047999928, 4.627256208000086 ], [ -74.169720761999955, 4.62685240300007 ], [ -74.169505102999963, 4.626252766000016 ], [ -74.169083995999927, 4.625340073000084 ], [ -74.168873408999914, 4.624952722 ], [ -74.168809078999928, 4.624829490000115 ], [ -74.168651142999906, 4.624694538000051 ], [ -74.168545850999905, 4.624577096000015 ], [ -74.168358637999958, 4.624453867000033 ], [ -74.168194860999904, 4.624348223000085 ], [ -74.16799603299998, 4.624195614000071 ], [ -74.167843938999908, 4.624066523000048 ], [ -74.167674318999914, 4.623872814 ], [ -74.167199377999879, 4.623049807000124 ], [ -74.167181358999898, 4.623020430000091 ], [ -74.166811640999939, 4.622399680000067 ], [ -74.166492738999935, 4.621858165000026 ], [ -74.166470638999883, 4.62182066600012 ], [ -74.166002035999924, 4.621042433000033 ], [ -74.166813012999881, 4.62055802900001 ], [ -74.167166175999881, 4.620347078000053 ], [ -74.168196589999965, 4.619542121000064 ], [ -74.169407869999901, 4.61836519800003 ], [ -74.170580724999965, 4.617496957000045 ], [ -74.171445955999872, 4.616841009000039 ], [ -74.172215048999917, 4.6163393690001 ], [ -74.172926428999887, 4.615799100000073 ], [ -74.173476293999911, 4.615426277000045 ], [ -74.174560111999966, 4.614637483000061 ], [ -74.174693829999924, 4.614532959000117 ], [ -74.174712830999908, 4.614516504000088 ], [ -74.174851967999956, 4.614397291000083 ], [ -74.175327295999935, 4.613984780000058 ], [ -74.176091379999917, 4.613252065 ], [ -74.176770658999899, 4.612638629000054 ], [ -74.177738551999965, 4.611752518000101 ], [ -74.178360824999942, 4.611206173000104 ], [ -74.178935413999866, 4.611666530000091 ], [ -74.179135365999898, 4.611791310000024 ], [ -74.179917363999934, 4.612272845000076 ], [ -74.180044613, 4.612351582000107 ], [ -74.180486181999925, 4.612625009000082 ], [ -74.180966034999926, 4.612852390000066 ], [ -74.181192658999947, 4.612959371000036 ], [ -74.181285986999939, 4.613066429000101 ], [ -74.181339268999906, 4.613217979000028 ], [ -74.181352645999951, 4.613356184000095 ], [ -74.181361519999967, 4.613498909 ], [ -74.181388197999951, 4.613596858000024 ], [ -74.181432610999906, 4.613703988000095 ], [ -74.181521505999882, 4.613851088 ], [ -74.181668110999937, 4.613989288000075 ], [ -74.181850257999912, 4.614149801000034 ], [ -74.181903611999971, 4.614261239000106 ], [ -74.18179931399996, 4.614389419000053 ], [ -74.181763844999949, 4.614432500000065 ], [ -74.181614714999867, 4.614539002000084 ], [ -74.181286050999944, 4.614713166000017 ], [ -74.181052957999924, 4.61477518 ], [ -74.18069866799992, 4.614774064000082 ], [ -74.180442276999941, 4.614793919000038 ], [ -74.180218541999906, 4.614833687000042 ], [ -74.180071735999917, 4.614940048000049 ], [ -74.179938865999944, 4.615108553000047 ], [ -74.179937316999897, 4.615114133000064 ], [ -74.179756310999934, 4.615354251000037 ], [ -74.179640260999932, 4.615548320000107 ], [ -74.179421043999909, 4.615936532000076 ], [ -74.179395293999903, 4.616143593000066 ], [ -74.179498479999921, 4.616428190000077 ], [ -74.179640301999925, 4.616635175000061 ], [ -74.179859544999957, 4.61690698600008 ], [ -74.180078780999878, 4.617010438000113 ], [ -74.180207711999898, 4.616919897000082 ], [ -74.180530106999925, 4.616544606000028 ], [ -74.18067190999993, 4.616259928000099 ], [ -74.180839540999855, 4.615949403000075 ], [ -74.181136102999886, 4.615470722000081 ], [ -74.181587418999925, 4.614797758000089 ], [ -74.182025875999869, 4.614655440000126 ], [ -74.182103228999964, 4.614823726000017 ], [ -74.182160943999946, 4.614904726000058 ], [ -74.182232170999981, 4.615004722000071 ], [ -74.182464287999906, 4.615147085000038 ], [ -74.182683522999923, 4.615198839000056 ], [ -74.182864047999942, 4.615263521000079 ], [ -74.182978629999923, 4.615370295000032 ], [ -74.182933947999956, 4.615594800000045 ], [ -74.182815087999884, 4.615877854000106 ], [ -74.182763714999908, 4.61594318 ], [ -74.182728878999953, 4.615985413000123 ], [ -74.182696223999912, 4.61601112100003 ], [ -74.182637951999979, 4.61608365000008 ], [ -74.182479464999915, 4.616274262000042 ], [ -74.182463138999907, 4.616316353000061 ], [ -74.182369965999925, 4.616521017000119 ], [ -74.182367925999927, 4.616549759000099 ], [ -74.182367644, 4.616553714000071 ], [ -74.182425926999926, 4.616786478000057 ], [ -74.182575070999931, 4.617010975000069 ], [ -74.182635668999879, 4.617049673000073 ], [ -74.18275222099993, 4.617124385000038 ], [ -74.182931689999947, 4.617160606000104 ], [ -74.183097153999952, 4.617186375000104 ], [ -74.183393167999938, 4.617126688000051 ], [ -74.18354933099998, 4.616933746000074 ], [ -74.183651868999931, 4.616809802000121 ], [ -74.18380106599993, 4.616619190000071 ], [ -74.183971231999891, 4.616384155000075 ], [ -74.184013317999913, 4.616334297000035 ], [ -74.184062086999944, 4.616276525000051 ], [ -74.184278848999938, 4.616121009000063 ], [ -74.184341766999907, 4.616078915000044 ], [ -74.18439412799998, 4.616040851000092 ], [ -74.184486322999973, 4.61597368500013 ], [ -74.1846657829999, 4.615820431000062 ], [ -74.184750374999879, 4.615741259000083 ], [ -74.184785348999924, 4.615625370000087 ], [ -74.184926811999915, 4.615647397000133 ], [ -74.185038645999924, 4.615674935000103 ], [ -74.185067785999934, 4.615695908000061 ], [ -74.185098118999875, 4.615721613000057 ], [ -74.185120289999929, 4.615749719000073 ], [ -74.185129580999899, 4.615784746000129 ], [ -74.185131910999914, 4.61594851500009 ], [ -74.185137757999954, 4.616078881000041 ], [ -74.185142408999894, 4.616216310000043 ], [ -74.185142414999902, 4.616347806000087 ], [ -74.185143612999909, 4.616374712 ], [ -74.185141296999888, 4.616494627000067 ], [ -74.185140102999881, 4.616560163000072 ], [ -74.185147073999929, 4.616623792 ], [ -74.185148274999932, 4.616749496000105 ], [ -74.185148540999961, 4.616759519000047 ], [ -74.185151799999872, 4.616882333000083 ], [ -74.185150184999912, 4.616975412000057 ], [ -74.185149482999947, 4.617016161000054 ], [ -74.185149488999954, 4.617148858000109 ], [ -74.185142456999898, 4.617299138000108 ], [ -74.185122686999946, 4.617422514000014 ], [ -74.185145987999931, 4.617548219000112 ], [ -74.185155282999901, 4.617679783000073 ], [ -74.18515894599993, 4.617730844000034 ], [ -74.185165775999877, 4.617825333000036 ], [ -74.185163459999856, 4.617941718000074 ], [ -74.185178667999963, 4.618082535 ], [ -74.185200773999924, 4.61823521500011 ], [ -74.185201550999906, 4.618310567000039 ], [ -74.185201703398533, 4.618322509021899 ], [ -74.185201975999945, 4.618348068000033 ], [ -74.18521943499988, 4.618487826000051 ], [ -74.185226408999924, 4.618609999000034 ], [ -74.185225282999909, 4.618624053000042 ], [ -74.185231130999867, 4.618743895000099 ], [ -74.185232257999957, 4.618763741000054 ], [ -74.185234582999968, 4.618855054000059 ], [ -74.185104100999922, 4.618875539000067 ], [ -74.184946732999961, 4.618884303000081 ], [ -74.184775427999909, 4.618909452000119 ], [ -74.18460996799989, 4.618935730000073 ], [ -74.184447954999897, 4.618958548000096 ], [ -74.184233508999924, 4.618998810000052 ], [ -74.184049396999882, 4.619020571000076 ], [ -74.18402983199995, 4.619012590000038 ], [ -74.183380019999916, 4.619132392 ], [ -74.183061826999875, 4.618959454000082 ], [ -74.182997006999926, 4.618954514000029 ], [ -74.182844350999915, 4.618907134000017 ], [ -74.182687049999956, 4.618843440000076 ], [ -74.182632222999942, 4.618821197000011 ], [ -74.182590275999942, 4.618804957000089 ], [ -74.182504059999914, 4.618787869000096 ], [ -74.182367735999918, 4.618810755000125 ], [ -74.182201078999896, 4.618844024000035 ], [ -74.182029775999922, 4.618898411000094 ], [ -74.18190231899986, 4.618927864000044 ], [ -74.181854954999935, 4.618938813000062 ], [ -74.181697587999892, 4.618972081000061 ], [ -74.181492503999976, 4.619039391000035 ], [ -74.181358500999892, 4.619050484000065 ], [ -74.181194163999891, 4.61903587200001 ], [ -74.181022858999924, 4.619031782000116 ], [ -74.180851483999874, 4.619013639000036 ], [ -74.180719801999899, 4.618978052000022 ], [ -74.180684892999935, 4.618972121000064 ], [ -74.18052400299986, 4.618913088000065 ], [ -74.180462277999908, 4.618862808000079 ], [ -74.180386547999944, 4.618789718000071 ], [ -74.180273441999915, 4.61864883400005 ], [ -74.180217486999908, 4.618576309000089 ], [ -74.180158084999874, 4.618528925000076 ], [ -74.180104454999963, 4.618485777000059 ], [ -74.180003110999934, 4.618568125000122 ], [ -74.179843423999856, 4.618697367000069 ], [ -74.179701259999916, 4.618793276000099 ], [ -74.17968957699992, 4.618806694000055 ], [ -74.179538123999919, 4.618920753000078 ], [ -74.1793597879999, 4.619060517000095 ], [ -74.179219946999879, 4.619174505000023 ], [ -74.179152384999966, 4.619243503000048 ], [ -74.17917920399988, 4.619331779000069 ], [ -74.179273586999869, 4.619461083000109 ], [ -74.179400627999911, 4.619604225000051 ], [ -74.17948557999992, 4.619700832000051 ], [ -74.179527667999935, 4.619748711000016 ], [ -74.179615083999892, 4.619860431000022 ], [ -74.179652317999953, 4.619916503000043 ], [ -74.179657385999917, 4.619923352000077 ], [ -74.179707145999956, 4.619990722000056 ], [ -74.179724602999883, 4.620046866000083 ], [ -74.179693145999948, 4.620125821000043 ], [ -74.179668654999972, 4.620158519000084 ], [ -74.179566114999915, 4.620258522000098 ], [ -74.1793994599999, 4.620392354000069 ], [ -74.179251455999903, 4.620525198000047 ], [ -74.179205570999926, 4.620570184000128 ], [ -74.179117457999922, 4.620656699000092 ], [ -74.178977617999905, 4.620788270000054 ], [ -74.17883073999991, 4.620927964000066 ], [ -74.178685128999945, 4.621056075000096 ], [ -74.178560419999926, 4.621187646000058 ], [ -74.178424027999924, 4.621314557000078 ], [ -74.178325920999981, 4.621401636000089 ], [ -74.178267930999979, 4.621453120000085 ], [ -74.178115210999948, 4.621589353000077 ], [ -74.178082062999877, 4.621618520000093 ], [ -74.177940391999968, 4.621743171000015 ], [ -74.177838343999966, 4.621843598000064 ], [ -74.177790065999957, 4.621891127000088 ], [ -74.177664229999948, 4.621985199000056 ], [ -74.177518545999973, 4.622113310000087 ], [ -74.177474279999856, 4.622150599000063 ], [ -74.177363573999941, 4.622244811000131 ], [ -74.177287848999882, 4.622312680000062 ], [ -74.177237668999908, 4.622354772000081 ], [ -74.177277293999907, 4.622392836000033 ], [ -74.177276167999892, 4.622427864000089 ], [ -74.177287853999886, 4.622478145000075 ], [ -74.177328606999978, 4.62255822800004 ], [ -74.177391528999934, 4.622646502000061 ], [ -74.177484786999926, 4.62279678000006 ], [ -74.177554749999857, 4.622909699000077 ], [ -74.177608311999933, 4.623005602000108 ], [ -74.177637450999953, 4.623058708000061 ], [ -74.177687563999925, 4.623127701000085 ], [ -74.177731834999946, 4.623181514000096 ], [ -74.177730709999935, 4.623208420000102 ], [ -74.177707414999958, 4.623252276000089 ], [ -74.177667792999884, 4.623290342000042 ], [ -74.177506977999897, 4.62339027700005 ], [ -74.177343768999989, 4.623489081000054 ], [ -74.177164303999874, 4.623612532000054 ], [ -74.177002362999886, 4.62372411800005 ], [ -74.176861324999948, 4.623814800000092 ], [ -74.176680661999924, 4.623929988000031 ], [ -74.176618939999869, 4.623969751000034 ], [ -74.176560665999943, 4.624020033000109 ], [ -74.176579318999885, 4.624069680000042 ], [ -74.17663055999995, 4.624188392000095 ], [ -74.176676029999982, 4.624325818 ], [ -74.176721499999928, 4.624462045000088 ], [ -74.17676577499995, 4.624606462000047 ], [ -74.176808920999875, 4.624731036000052 ], [ -74.176858330999963, 4.624831387000095 ], [ -74.177009036999905, 4.625476927000038 ], [ -74.177042263999908, 4.625731514000053 ], [ -74.177057470999927, 4.625847684000073 ], [ -74.176211367999898, 4.626177864000036 ], [ -74.174105822999948, 4.627053982000051 ], [ -74.173256198999908, 4.627380626000077 ], [ -74.172622990999912, 4.627624075000059 ], [ -74.171405420999889, 4.62811132000005 ], [ -74.170773341999904, 4.628482095 ], [ -74.170644610999915, 4.628272566000069 ] ] ] ] } },
{ "type": "Feature", "properties": { "UPlCodigo": "UPZ82", "UPlTipo": 1, "UPlNombre": "PATIO BONITO", "UPlAAdmini": "Dec 398 de 2004 Mod.=Dec 337 de 2009", "UPlArea": 320.60809250900002, "SHAPE_Leng": 0.08301776277, "SHAPE_Area": 316.40567626900003 }, "geometry": { "type": "MultiPolygon", "coordinates": [ [ [ [ -74.156314976999909, 4.640590578000081 ], [ -74.156306650999923, 4.640578097000025 ], [ -74.156189745999939, 4.640402816000089 ], [ -74.156225498999873, 4.640375204000025 ], [ -74.156287223999925, 4.640327464000071 ], [ -74.156300510999955, 4.640317198000021 ], [ -74.158415768999916, 4.638682906000069 ], [ -74.159268787999878, 4.637933824000084 ], [ -74.160048820999933, 4.637245052000116 ], [ -74.16065965699994, 4.636701195000059 ], [ -74.161270068999912, 4.6361595970001 ], [ -74.161746475999891, 4.635683537000057 ], [ -74.162201274999958, 4.63525931200004 ], [ -74.162552754999908, 4.63494349000011 ], [ -74.162884879999936, 4.634645397000048 ], [ -74.163128605999944, 4.634430846000059 ], [ -74.163414985999921, 4.634181975000073 ], [ -74.163715227999987, 4.633921237000083 ], [ -74.164826107999971, 4.632940086000081 ], [ -74.16538654499989, 4.632460772000035 ], [ -74.166031576999885, 4.631890993000054 ], [ -74.167110638999901, 4.630939357 ], [ -74.167849343999919, 4.630292738000064 ], [ -74.167872920999912, 4.630272115000045 ], [ -74.168491276999916, 4.629776063000035 ], [ -74.168873367999907, 4.629491241 ], [ -74.169161641999963, 4.62928770500004 ], [ -74.169226954999942, 4.629242576000125 ], [ -74.169659718999966, 4.628943770000093 ], [ -74.16991273499994, 4.628771308000035 ], [ -74.170644610999915, 4.628272566000069 ], [ -74.170773341999904, 4.628482095 ], [ -74.171346967999938, 4.62941568900006 ], [ -74.172884654999891, 4.632328685000031 ], [ -74.173119669999977, 4.63277415400003 ], [ -74.173606733999961, 4.63369743800004 ], [ -74.174071415999947, 4.634578349 ], [ -74.174450298999943, 4.635296551000101 ], [ -74.174725012999929, 4.635808049000056 ], [ -74.175188078999966, 4.63667031500008 ], [ -74.175246286999894, 4.636778646000073 ], [ -74.175750317999942, 4.637730316000033 ], [ -74.176474449999915, 4.639108387000102 ], [ -74.177333793999964, 4.640711874000081 ], [ -74.178211301999909, 4.642360486000063 ], [ -74.17841683099995, 4.642756380000046 ], [ -74.178502351999924, 4.642920994000077 ], [ -74.178917983999938, 4.643654023000066 ], [ -74.179143432999936, 4.644051680000105 ], [ -74.1797774099999, 4.645260118000083 ], [ -74.179991246999919, 4.645670842000049 ], [ -74.180383022999919, 4.646396101000017 ], [ -74.182037158006494, 4.649457946543256 ], [ -74.181766889414988, 4.649829848377296 ], [ -74.18104801340418, 4.650888759815297 ], [ -74.180716334090206, 4.651744809486713 ], [ -74.180490222935163, 4.652130079509886 ], [ -74.18008458796804, 4.652609932863117 ], [ -74.179779028999945, 4.652801501000026 ], [ -74.179760954030613, 4.652815611302996 ], [ -74.179638178581243, 4.6528918672053 ], [ -74.178909363075078, 4.653263142612696 ], [ -74.178368741709804, 4.653576020071659 ], [ -74.177703439264491, 4.654061552217081 ], [ -74.177597563766781, 4.654192993950668 ], [ -74.177579818999888, 4.654205945000056 ], [ -74.17751393999994, 4.65424154000007 ], [ -74.175228642999954, 4.651142068000036 ], [ -74.173778135999925, 4.649174900000075 ], [ -74.172144704999951, 4.646959642000104 ], [ -74.171482876999903, 4.646067859000125 ], [ -74.1711800799999, 4.645659821000026 ], [ -74.169561377999912, 4.643478595000117 ], [ -74.168302698999952, 4.641771506000092 ], [ -74.167502011999957, 4.640705432000081 ], [ -74.166891785999908, 4.639892880000085 ], [ -74.165902301999935, 4.64063886600008 ], [ -74.165065259999949, 4.641274539000095 ], [ -74.164949413999963, 4.641381391000055 ], [ -74.16444485199996, 4.641846859000021 ], [ -74.163408139999973, 4.642803010000085 ], [ -74.162290204999934, 4.643842988000069 ], [ -74.16186749299996, 4.644207961000069 ], [ -74.161615175999955, 4.644395109000099 ], [ -74.161226737999968, 4.644726961000023 ], [ -74.160338664999941, 4.645554999000057 ], [ -74.159819236999951, 4.644967368000019 ], [ -74.159319447999891, 4.64438355100012 ], [ -74.157888145999948, 4.642886824000092 ], [ -74.157477180999962, 4.642440503000023 ], [ -74.157178829999879, 4.642019041000056 ], [ -74.156977747999946, 4.641714878000114 ], [ -74.156770188999914, 4.641272933000051 ], [ -74.156314976999909, 4.640590578000081 ] ] ] ] } },
{ "type": "Feature", "properties": { "UPlCodigo": "UPZ45", "UPlTipo": 1, "UPlNombre": "CARVAJAL", "UPlAAdmini": "Dec 682 de 2011", "UPlArea": 444.02269303999998, "SHAPE_Leng": 0.09134749002000001, "SHAPE_Area": 438.243138929 }, "geometry": { "type": "MultiPolygon", "coordinates": [ [ [ [ -74.141856547999893, 4.619130182000086 ], [ -74.141324406999928, 4.619069862000069 ], [ -74.140752433999936, 4.618966605000052 ], [ -74.140339727999901, 4.618881853000056 ], [ -74.140036322999933, 4.618801622000079 ], [ -74.139689774999937, 4.61871001900005 ], [ -74.139476174999942, 4.618606767000033 ], [ -74.139262151999915, 4.618503305000088 ], [ -74.139000695999954, 4.61825238300011 ], [ -74.138347166999964, 4.617484297000063 ], [ -74.137855647999885, 4.616906608000049 ], [ -74.137143637999955, 4.616079552000096 ], [ -74.136398059999905, 4.615167324000113 ], [ -74.135540230999979, 4.614144571000045 ], [ -74.135144993999873, 4.613673308000044 ], [ -74.134436929999907, 4.61285076900011 ], [ -74.134106228999897, 4.612516723000093 ], [ -74.133816484999912, 4.612263540000106 ], [ -74.133367545999889, 4.611954632000037 ], [ -74.133332285999899, 4.611932102000127 ], [ -74.132195474999989, 4.61124845900005 ], [ -74.131539061999945, 4.610858189000089 ], [ -74.130983501999893, 4.610527877000026 ], [ -74.130584952999953, 4.610296652000079 ], [ -74.129934805999895, 4.609909135000079 ], [ -74.129538370999867, 4.609670635000063 ], [ -74.129454691999882, 4.609615617000129 ], [ -74.12935559999994, 4.609547819000026 ], [ -74.129257986999946, 4.60947726500005 ], [ -74.129161569999965, 4.609405864000093 ], [ -74.129060295697769, 4.609326552245419 ], [ -74.129085637999893, 4.609248378000119 ], [ -74.12926539799993, 4.60885453100004 ], [ -74.12972788799992, 4.607914653000078 ], [ -74.130256883999905, 4.606957475000018 ], [ -74.137313274999954, 4.596211643000059 ], [ -74.137432854999901, 4.595879444000017 ], [ -74.137567987999972, 4.59548171000006 ], [ -74.137766183999943, 4.59488511100008 ], [ -74.140432631999943, 4.595364255000023 ], [ -74.141081228999965, 4.595436583000057 ], [ -74.141810900999943, 4.595463713000081 ], [ -74.142585614999916, 4.59547276500003 ], [ -74.143243222999885, 4.595400459000087 ], [ -74.144017937999948, 4.595337192 ], [ -74.145109140999907, 4.595137632000013 ], [ -74.145373971999874, 4.595065178000057 ], [ -74.145641124999955, 4.594990322000081 ], [ -74.146338213999897, 4.594927053000086 ], [ -74.146944303999959, 4.594956014000084 ], [ -74.147797486999934, 4.59501583500006 ], [ -74.1484905639999, 4.595060404000018 ], [ -74.149147182999883, 4.59513272300005 ], [ -74.15123612399988, 4.595392548000055 ], [ -74.151725878999898, 4.59547263300002 ], [ -74.152202545999899, 4.595662534000011 ], [ -74.152263702999903, 4.595686897000073 ], [ -74.152143216999974, 4.595993181000013 ], [ -74.152113306999894, 4.596046993000114 ], [ -74.152080369999922, 4.596099040000068 ], [ -74.152044476999976, 4.596149111000036 ], [ -74.152005768999871, 4.59619699200009 ], [ -74.15196445699992, 4.596242613000046 ], [ -74.151920541999928, 4.596285691000057 ], [ -74.151874233999919, 4.596326228000036 ], [ -74.151825671999902, 4.596364080000059 ], [ -74.151775070999889, 4.596398967000104 ], [ -74.151722498999888, 4.596430817000074 ], [ -74.151668167999915, 4.596459771000072 ], [ -74.151612358999927, 4.596485477000067 ], [ -74.151555141999978, 4.596507864000055 ], [ -74.151496656999939, 4.596527001000128 ], [ -74.151437259999909, 4.596542680000093 ], [ -74.151377086999901, 4.596554896000038 ], [ -74.15131620899993, 4.596563654000052 ], [ -74.151254980999923, 4.59656887900004 ], [ -74.151193611999915, 4.596570575 ], [ -74.151132876999952, 4.596563723000058 ], [ -74.15107249299993, 4.596552213000082 ], [ -74.15101281299988, 4.596537594000027 ], [ -74.150953975999897, 4.596519797000065 ], [ -74.150896124999903, 4.596499034000123 ], [ -74.15083947299992, 4.596475165000102 ], [ -74.150784086999963, 4.596448398000108 ], [ -74.150730246999856, 4.596418809000058 ], [ -74.150677955999882, 4.59638639300004 ], [ -74.150627425999872, 4.596351294000067 ], [ -74.150578795999934, 4.596313583000056 ], [ -74.150532205999895, 4.596273399000017 ], [ -74.150487796999954, 4.596230814000046 ], [ -74.150445641999937, 4.596185971000066 ], [ -74.150405173999872, 4.596138865000077 ], [ -74.150366044999913, 4.596091266000046 ], [ -74.150328111999883, 4.596042821000124 ], [ -74.150291233999951, 4.595993457000036 ], [ -74.150255552999923, 4.595943245000056 ], [ -74.150221067999908, 4.5958922570001 ], [ -74.150187709999912, 4.595840421000075 ], [ -74.150155616999911, 4.595787809000074 ], [ -74.150124792999947, 4.595734489000014 ], [ -74.150095163999978, 4.595680464000074 ], [ -74.150066801999941, 4.595625803000081 ], [ -74.150008177999979, 4.595600451000026 ], [ -74.149892336999898, 4.595597413000041 ], [ -74.149831459999916, 4.59560539300008 ], [ -74.149771778999948, 4.59561994100004 ], [ -74.149719629999908, 4.59565489800009 ], [ -74.14969520899993, 4.595711464000063 ], [ -74.149678668999883, 4.595770786000086 ], [ -74.149670224999895, 4.595831803000072 ], [ -74.149670012999977, 4.595893455000111 ], [ -74.149678105999925, 4.595954542000102 ], [ -74.149694361999948, 4.596013934000043 ], [ -74.149718430999982, 4.596070643000116 ], [ -74.149749889999924, 4.596123539000052 ], [ -74.149788455999911, 4.596171984000064 ], [ -74.149849262999879, 4.596262096000059 ], [ -74.149940259999951, 4.596319935000048 ], [ -74.149986848999902, 4.596489426000039 ], [ -74.150095159999893, 4.596651643000049 ], [ -74.150235350999935, 4.596793026000023 ], [ -74.150432687999924, 4.596936388000072 ], [ -74.150488286999902, 4.597076006000078 ], [ -74.15056499799995, 4.597302628000088 ], [ -74.150707791999949, 4.597499097000091 ], [ -74.151049614999906, 4.597737937000135 ], [ -74.151205923999953, 4.597906792000073 ], [ -74.151496651999935, 4.598405164 ], [ -74.151969167999951, 4.598714414000105 ], [ -74.152177836999897, 4.599249933000094 ], [ -74.15216010099995, 4.599758616000083 ], [ -74.148853670999927, 4.601152588000046 ], [ -74.146713258999938, 4.602054965000102 ], [ -74.145636885999963, 4.606271233000081 ], [ -74.145815961999944, 4.6065280120001 ], [ -74.146803147999904, 4.607940298000068 ], [ -74.147191000999939, 4.608483447000067 ], [ -74.147393054999952, 4.608765791000069 ], [ -74.147443163999924, 4.608835635000075 ], [ -74.147588563999975, 4.609054843000093 ], [ -74.147651200999917, 4.609149122000078 ], [ -74.148266656999937, 4.610076450000067 ], [ -74.148647190999981, 4.610649823000079 ], [ -74.15027602999993, 4.613103908000094 ], [ -74.150869955999951, 4.613913083000076 ], [ -74.150942374999914, 4.614011812000074 ], [ -74.151833161999988, 4.615320914000032 ], [ -74.152520555999928, 4.616341456 ], [ -74.15298393499998, 4.617039403000112 ], [ -74.152719941999905, 4.617083611000039 ], [ -74.152701641999897, 4.617086647000024 ], [ -74.152267963999904, 4.617159174000074 ], [ -74.151472322999965, 4.617298933000091 ], [ -74.15066823499987, 4.617440100000048 ], [ -74.149348547999935, 4.617680841000071 ], [ -74.148148783999957, 4.617961762000045 ], [ -74.146988996999923, 4.618322908000083 ], [ -74.146822899999947, 4.618360760000106 ], [ -74.146109176999957, 4.618523535000074 ], [ -74.145327820999881, 4.618771828000101 ], [ -74.144767454999879, 4.618959322000071 ], [ -74.144109542999885, 4.619125412000047 ], [ -74.143205160999926, 4.619300116000113 ], [ -74.142400228999946, 4.619201446000121 ], [ -74.141955148999884, 4.619146849000044 ], [ -74.141856547999893, 4.619130182000086 ] ] ] ] } },
{ "type": "Feature", "properties": { "UPlCodigo": "UPZ80", "UPlTipo": 1, "UPlNombre": "CORABASTOS", "UPlAAdmini": "Dec 263 de 2010", "UPlArea": 186.82183785000001, "SHAPE_Leng": 0.0530865589, "SHAPE_Area": 184.378410514 }, "geometry": { "type": "MultiPolygon", "coordinates": [ [ [ [ -74.155089290999925, 4.631828145 ], [ -74.155083251999955, 4.63179612000002 ], [ -74.155047426999928, 4.631606150000023 ], [ -74.155064386999911, 4.631043797000034 ], [ -74.155421005999926, 4.630464422000058 ], [ -74.155845540999877, 4.630021486000091 ], [ -74.156236081999864, 4.629595500000017 ], [ -74.156643655999929, 4.629186533000018 ], [ -74.157034267999919, 4.62874345600004 ], [ -74.157492722999919, 4.628215210000031 ], [ -74.157968211999915, 4.627721143000096 ], [ -74.158006427999879, 4.62767693500008 ], [ -74.158409774999953, 4.62720998700008 ], [ -74.158664057999943, 4.626904974000068 ], [ -74.158801720999961, 4.62673993200009 ], [ -74.158830083999902, 4.62670582200011 ], [ -74.158847537999932, 4.626684848000062 ], [ -74.158917424999942, 4.626608223000028 ], [ -74.159666547999933, 4.625786896000106 ], [ -74.160858142999928, 4.624368041000126 ], [ -74.161586148999859, 4.623700173000111 ], [ -74.161966054999937, 4.623258716000089 ], [ -74.16234596399994, 4.623017967000065 ], [ -74.162905833999901, 4.622696986000063 ], [ -74.163505747999878, 4.622335752000106 ], [ -74.164025638999917, 4.621934477000122 ], [ -74.164865477999939, 4.621613492000032 ], [ -74.165423094, 4.621277680000047 ], [ -74.165465321999932, 4.621252256000075 ], [ -74.166002035999924, 4.621042433000033 ], [ -74.166470638999883, 4.62182066600012 ], [ -74.166492738999935, 4.621858165000026 ], [ -74.166811640999939, 4.622399680000067 ], [ -74.167181358999898, 4.623020430000091 ], [ -74.167199377999879, 4.623049807000124 ], [ -74.167674318999914, 4.623872814 ], [ -74.167843938999908, 4.624066523000048 ], [ -74.16799603299998, 4.624195614000071 ], [ -74.168194860999904, 4.624348223000085 ], [ -74.168358637999958, 4.624453867000033 ], [ -74.168545850999905, 4.624577096000015 ], [ -74.168651142999906, 4.624694538000051 ], [ -74.168809078999928, 4.624829490000115 ], [ -74.168873408999914, 4.624952722 ], [ -74.169083995999927, 4.625340073000084 ], [ -74.169505102999963, 4.626252766000016 ], [ -74.169720761999955, 4.62685240300007 ], [ -74.169918047999928, 4.627256208000086 ], [ -74.170123215999936, 4.627644125000119 ], [ -74.170143273999912, 4.62768098700006 ], [ -74.170352033999862, 4.628063748000022 ], [ -74.170644610999915, 4.628272566000069 ], [ -74.16991273499994, 4.628771308000035 ], [ -74.169659718999966, 4.628943770000093 ], [ -74.169226954999942, 4.629242576000125 ], [ -74.169161641999963, 4.62928770500004 ], [ -74.168873367999907, 4.629491241 ], [ -74.168491276999916, 4.629776063000035 ], [ -74.167872920999912, 4.630272115000045 ], [ -74.167849343999919, 4.630292738000064 ], [ -74.167110638999901, 4.630939357 ], [ -74.166031576999885, 4.631890993000054 ], [ -74.16538654499989, 4.632460772000035 ], [ -74.164826107999971, 4.632940086000081 ], [ -74.163715227999987, 4.633921237000083 ], [ -74.163414985999921, 4.634181975000073 ], [ -74.163128605999944, 4.634430846000059 ], [ -74.162884879999936, 4.634645397000048 ], [ -74.162552754999908, 4.63494349000011 ], [ -74.162201274999958, 4.63525931200004 ], [ -74.161746475999891, 4.635683537000057 ], [ -74.161270068999912, 4.6361595970001 ], [ -74.16065965699994, 4.636701195000059 ], [ -74.160048820999933, 4.637245052000116 ], [ -74.159268787999878, 4.637933824000084 ], [ -74.158415768999916, 4.638682906000069 ], [ -74.156300510999955, 4.640317198000021 ], [ -74.156161870999938, 4.640054020000095 ], [ -74.155160670999877, 4.638038556000046 ], [ -74.155122196999898, 4.637961106000121 ], [ -74.154976764999944, 4.63768961500004 ], [ -74.154563374999924, 4.636917907000049 ], [ -74.154316453999925, 4.63640934800007 ], [ -74.154069532999927, 4.635900787000091 ], [ -74.153894504999926, 4.635494659000061 ], [ -74.153861599999956, 4.63541830800005 ], [ -74.154290460999903, 4.635001028000074 ], [ -74.154738173999917, 4.634546583000132 ], [ -74.155119930999973, 4.634159084000133 ], [ -74.155171944999921, 4.634106894000078 ], [ -74.155284695999924, 4.633966605000106 ], [ -74.15530197899993, 4.633945102000014 ], [ -74.155348790999895, 4.633835501000094 ], [ -74.155389141999947, 4.633742957000075 ], [ -74.155421609999891, 4.633668490000042 ], [ -74.155456327999914, 4.633449520000044 ], [ -74.15545801899988, 4.633438851000049 ], [ -74.15546321899987, 4.633313593000077 ], [ -74.155452815999894, 4.63317789700004 ], [ -74.155416405999901, 4.633010887000077 ], [ -74.155353989999881, 4.632786466000072 ], [ -74.155338384999922, 4.632687304000038 ], [ -74.155299726999928, 4.632576480000106 ], [ -74.15526556599994, 4.632478542000085 ], [ -74.155203149999934, 4.632290654000082 ], [ -74.155182342999893, 4.6322071490001 ], [ -74.155171938999928, 4.632034920000061 ], [ -74.155140397999887, 4.631831463000102 ], [ -74.155089290999925, 4.631828145 ] ] ] ] } },
{ "type": "Feature", "properties": { "UPlCodigo": "UPZ79", "UPlTipo": 1, "UPlNombre": "CALANDAIMA", "UPlAAdmini": null, "UPlArea": 322.413519753, "SHAPE_Leng": 0.08705837616000001, "SHAPE_Area": 318.18038206300002 }, "geometry": { "type": "MultiPolygon", "coordinates": [ [ [ [ -74.171243852999936, 4.65704812700003 ], [ -74.170859270999912, 4.656707674000105 ], [ -74.170313859999908, 4.65630076900001 ], [ -74.167978202999919, 4.653676625000047 ], [ -74.167828421999872, 4.653482987000102 ], [ -74.164596229999873, 4.649846358000032 ], [ -74.159266381999942, 4.65282768000006 ], [ -74.158697677999967, 4.651871338000069 ], [ -74.154496033999948, 4.656224704000111 ], [ -74.147012511999918, 4.649127924000096 ], [ -74.14699281599988, 4.649109933000117 ], [ -74.147057546999903, 4.64903338400009 ], [ -74.148133870999885, 4.647998977000034 ], [ -74.148717416999929, 4.647439485000104 ], [ -74.149145350999902, 4.647049143000048 ], [ -74.14933986599992, 4.64686047600007 ], [ -74.14947074199992, 4.646760058000021 ], [ -74.149560316999953, 4.646691327000019 ], [ -74.15080755799994, 4.645592757000072 ], [ -74.151229765999886, 4.6452291890001 ], [ -74.151667903999893, 4.644814390000063 ], [ -74.151839952999921, 4.644651625000096 ], [ -74.15229391999992, 4.644222148 ], [ -74.152543028999915, 4.644017681000134 ], [ -74.152556187999949, 4.64400688100004 ], [ -74.152578836999865, 4.643984170000026 ], [ -74.153054656999885, 4.643507058000074 ], [ -74.15340439699996, 4.643203862000034 ], [ -74.153572843999953, 4.64305174600006 ], [ -74.1536764169999, 4.642958214000048 ], [ -74.154660852999911, 4.642032844000044 ], [ -74.15553157599993, 4.641270002000075 ], [ -74.156096892999898, 4.640790781000037 ], [ -74.156314976999909, 4.640590578000081 ], [ -74.156770188999914, 4.641272933000051 ], [ -74.156977747999946, 4.641714878000114 ], [ -74.157178829999879, 4.642019041000056 ], [ -74.157477180999962, 4.642440503000023 ], [ -74.157888145999948, 4.642886824000092 ], [ -74.159319447999891, 4.64438355100012 ], [ -74.159819236999951, 4.644967368000019 ], [ -74.160338664999941, 4.645554999000057 ], [ -74.161226737999968, 4.644726961000023 ], [ -74.161615175999955, 4.644395109000099 ], [ -74.16186749299996, 4.644207961000069 ], [ -74.162290204999934, 4.643842988000069 ], [ -74.163408139999973, 4.642803010000085 ], [ -74.16444485199996, 4.641846859000021 ], [ -74.164949413999963, 4.641381391000055 ], [ -74.165065259999949, 4.641274539000095 ], [ -74.165902301999935, 4.64063886600008 ], [ -74.166891785999908, 4.639892880000085 ], [ -74.167502011999957, 4.640705432000081 ], [ -74.168302698999952, 4.641771506000092 ], [ -74.169561377999912, 4.643478595000117 ], [ -74.1711800799999, 4.645659821000026 ], [ -74.171482876999903, 4.646067859000125 ], [ -74.172144704999951, 4.646959642000104 ], [ -74.173778135999925, 4.649174900000075 ], [ -74.175228642999954, 4.651142068000036 ], [ -74.17751393999994, 4.65424154000007 ], [ -74.17693005299995, 4.654556953000055 ], [ -74.17658011099995, 4.654707457000073 ], [ -74.176300676181995, 4.654707466147956 ], [ -74.176016334489674, 4.654627840732095 ], [ -74.1755711649527, 4.654515903713508 ], [ -74.175280545999982, 4.654406584000048 ], [ -74.174980640999948, 4.654356453000075 ], [ -74.174580795999901, 4.65440660600005 ], [ -74.174480784999886, 4.654557031000062 ], [ -74.174430830999924, 4.655108722000056 ], [ -74.174335335236989, 4.65554009371103 ], [ -74.17419527395441, 4.655710825432235 ], [ -74.173820236408773, 4.656016911464311 ], [ -74.17309186648076, 4.656474147207534 ], [ -74.172643314606802, 4.656901004653902 ], [ -74.172336384113876, 4.657143539813147 ], [ -74.172070037507055, 4.657224325919573 ], [ -74.172017021999963, 4.657232287000079 ], [ -74.171542070999919, 4.65712650800012 ], [ -74.171243852999936, 4.65704812700003 ] ] ] ] } },
{ "type": "Feature", "properties": { "UPlCodigo": "UPZ47", "UPlTipo": 1, "UPlNombre": "KENNEDY CENTRAL", "UPlAAdmini": "Dec 308 de 2004", "UPlArea": 341.40178581800001, "SHAPE_Leng": 0.08323577854, "SHAPE_Area": 336.94443635699997 }, "geometry": { "type": "MultiPolygon", "coordinates": [ [ [ [ -74.148406677999887, 4.631416659000065 ], [ -74.148092182999889, 4.629796262000108 ], [ -74.148047070999979, 4.629563920000068 ], [ -74.147418505999937, 4.628928397000065 ], [ -74.146657064, 4.628134754000124 ], [ -74.145748811999894, 4.627191391000052 ], [ -74.145282756999876, 4.626717096000066 ], [ -74.14528811199996, 4.626160182000083 ], [ -74.145112802999932, 4.625480665000081 ], [ -74.145163406999956, 4.625426004000088 ], [ -74.14556500199987, 4.624991833000047 ], [ -74.14636424999992, 4.624080620000059 ], [ -74.146314138999955, 4.624060069000047 ], [ -74.145451076999862, 4.623264022000084 ], [ -74.145441292999934, 4.623233019000095 ], [ -74.145384707999966, 4.623212398000076 ], [ -74.143711721999921, 4.621670228000108 ], [ -74.142762380999883, 4.62079585700006 ], [ -74.142237916999918, 4.620319584000088 ], [ -74.14198567999992, 4.620089780000081 ], [ -74.14186047799987, 4.619809625000082 ], [ -74.141854498999905, 4.61956676000006 ], [ -74.141858093999943, 4.619273683000058 ], [ -74.141856547999893, 4.619130182000086 ], [ -74.141955148999884, 4.619146849000044 ], [ -74.142400228999946, 4.619201446000121 ], [ -74.143205160999926, 4.619300116000113 ], [ -74.144109542999885, 4.619125412000047 ], [ -74.144767454999879, 4.618959322000071 ], [ -74.145327820999881, 4.618771828000101 ], [ -74.146109176999957, 4.618523535000074 ], [ -74.146822899999947, 4.618360760000106 ], [ -74.146988996999923, 4.618322908000083 ], [ -74.148148783999957, 4.617961762000045 ], [ -74.149348547999935, 4.617680841000071 ], [ -74.15066823499987, 4.617440100000048 ], [ -74.151472322999965, 4.617298933000091 ], [ -74.152267963999904, 4.617159174000074 ], [ -74.152701641999897, 4.617086647000024 ], [ -74.152719941999905, 4.617083611000039 ], [ -74.15298393499998, 4.617039403000112 ], [ -74.153947570999961, 4.6168782460001 ], [ -74.155999624999922, 4.616496958000083 ], [ -74.156107163999948, 4.616476973000117 ], [ -74.156681742999879, 4.616383469000107 ], [ -74.157586890999895, 4.616236219000092 ], [ -74.157594773999932, 4.616234877000069 ], [ -74.158629701999942, 4.616058177000104 ], [ -74.159466441999982, 4.615915163000084 ], [ -74.16018635099995, 4.615754706000041 ], [ -74.160826168999861, 4.615634291000026 ], [ -74.16151046599991, 4.615451234000068 ], [ -74.162496476999948, 4.615187524000097 ], [ -74.162559677999937, 4.615170645000122 ], [ -74.164408532999886, 4.614518929000022 ], [ -74.164479685999908, 4.614508829000075 ], [ -74.165885719999977, 4.614308807000045 ], [ -74.16589564199991, 4.614306901000065 ], [ -74.166964909999919, 4.61410921100005 ], [ -74.169587584999945, 4.613729289000057 ], [ -74.171176810999981, 4.613496483000068 ], [ -74.171914028999964, 4.613388485000103 ], [ -74.172780044999939, 4.613354493000132 ], [ -74.173510235999871, 4.613593029000063 ], [ -74.173999872999886, 4.613937646000066 ], [ -74.174243389999873, 4.614109036000036 ], [ -74.174472409999908, 4.614307826000053 ], [ -74.174712830999908, 4.614516504000088 ], [ -74.174693829999924, 4.614532959000117 ], [ -74.174560111999966, 4.614637483000061 ], [ -74.173476293999911, 4.615426277000045 ], [ -74.172926428999887, 4.615799100000073 ], [ -74.172215048999917, 4.6163393690001 ], [ -74.171445955999872, 4.616841009000039 ], [ -74.170580724999965, 4.617496957000045 ], [ -74.169407869999901, 4.61836519800003 ], [ -74.168196589999965, 4.619542121000064 ], [ -74.167166175999881, 4.620347078000053 ], [ -74.166813012999881, 4.62055802900001 ], [ -74.166002035999924, 4.621042433000033 ], [ -74.165465321999932, 4.621252256000075 ], [ -74.165423094, 4.621277680000047 ], [ -74.164865477999939, 4.621613492000032 ], [ -74.164025638999917, 4.621934477000122 ], [ -74.163505747999878, 4.622335752000106 ], [ -74.162905833999901, 4.622696986000063 ], [ -74.16234596399994, 4.623017967000065 ], [ -74.161966054999937, 4.623258716000089 ], [ -74.161586148999859, 4.623700173000111 ], [ -74.160858142999928, 4.624368041000126 ], [ -74.159666547999933, 4.625786896000106 ], [ -74.158917424999942, 4.626608223000028 ], [ -74.158847537999932, 4.626684848000062 ], [ -74.158830083999902, 4.62670582200011 ], [ -74.158801720999961, 4.62673993200009 ], [ -74.158664057999943, 4.626904974000068 ], [ -74.158409774999953, 4.62720998700008 ], [ -74.158006427999879, 4.62767693500008 ], [ -74.157968211999915, 4.627721143000096 ], [ -74.157492722999919, 4.628215210000031 ], [ -74.157034267999919, 4.62874345600004 ], [ -74.156643655999929, 4.629186533000018 ], [ -74.156236081999864, 4.629595500000017 ], [ -74.155845540999877, 4.630021486000091 ], [ -74.155421005999926, 4.630464422000058 ], [ -74.155064386999911, 4.631043797000034 ], [ -74.155047426999928, 4.631606150000023 ], [ -74.155083251999955, 4.63179612000002 ], [ -74.155089290999925, 4.631828145 ], [ -74.151524153999901, 4.631596673000038 ], [ -74.150644754999888, 4.631550229000103 ], [ -74.149966111999873, 4.631514387000069 ], [ -74.148837112999885, 4.631440699000011 ], [ -74.148795223999883, 4.631437964000051 ], [ -74.148701336999935, 4.631431890000082 ], [ -74.148406677999887, 4.631416659000065 ] ] ] ] } },
{ "type": "Feature", "properties": { "UPlCodigo": "UPZ48", "UPlTipo": 1, "UPlNombre": "TIMIZA", "UPlAAdmini": "Dec 467 de 2006 Mod.=Dec 529 de 2012, 215 de 2016", "UPlArea": 435.768323243, "SHAPE_Leng": 0.10548036247000001, "SHAPE_Area": 430.09478798800001 }, "geometry": { "type": "MultiPolygon", "coordinates": [ [ [ [ -74.15216010099995, 4.599758616000083 ], [ -74.152141379999904, 4.600107837000023 ], [ -74.152150245999934, 4.600477042000106 ], [ -74.152240540999941, 4.600682902000086 ], [ -74.15247025499994, 4.600892646000121 ], [ -74.153158832999893, 4.601008111000082 ], [ -74.153492351999958, 4.600983324000074 ], [ -74.153600876999874, 4.601186783000033 ], [ -74.153684484999957, 4.601424917000108 ], [ -74.154144264999886, 4.601913047000084 ], [ -74.154495522999909, 4.602197791000018 ], [ -74.154750925999906, 4.602512901000066 ], [ -74.155117946999979, 4.602765370000084 ], [ -74.155425077999908, 4.60292193400007 ], [ -74.155727069999941, 4.602979914000072 ], [ -74.156053906999972, 4.602973556000078 ], [ -74.1562665189999, 4.602986055000047 ], [ -74.15643570899995, 4.603003569000075 ], [ -74.156584698999936, 4.60307376500011 ], [ -74.156665282999938, 4.603192550000079 ], [ -74.156812727999878, 4.603815566000025 ], [ -74.156836515999984, 4.603989717000045 ], [ -74.15697875099994, 4.604082935000031 ], [ -74.158691270999967, 4.605043581000112 ], [ -74.159136205999928, 4.605313985000103 ], [ -74.159539405999894, 4.605495123000081 ], [ -74.161905392999898, 4.606105899000079 ], [ -74.162307254999931, 4.60617771500007 ], [ -74.162685047999929, 4.606284843000052 ], [ -74.163144972999959, 4.606342533000118 ], [ -74.16329276699993, 4.606317814000116 ], [ -74.163530924999918, 4.606235467000053 ], [ -74.164376867999934, 4.60581511900009 ], [ -74.16478752499998, 4.605691456000072 ], [ -74.16500105199988, 4.605658542000102 ], [ -74.165354138999959, 4.605526688000028 ], [ -74.165625162999916, 4.605394763000037 ], [ -74.166647679999969, 4.604830272000049 ], [ -74.166852970999898, 4.604723207000072 ], [ -74.167173258999938, 4.604517130000074 ], [ -74.16744428399997, 4.604410062000097 ], [ -74.167764573999918, 4.60436048000008 ], [ -74.168125966999895, 4.604393453000055 ], [ -74.168429788999887, 4.604311032000075 ], [ -74.1685940509999, 4.604245139000041 ], [ -74.168782941999979, 4.604047325000105 ], [ -74.168873303999902, 4.603874232000083 ], [ -74.168980061999946, 4.603627128000065 ], [ -74.169021085999972, 4.603371550000057 ], [ -74.168988284999912, 4.603107851000088 ], [ -74.168971808999885, 4.602819436000027 ], [ -74.168996434999968, 4.602522757000083 ], [ -74.16910319499992, 4.602341401000087 ], [ -74.169259221999951, 4.60230015400005 ], [ -74.169489218999885, 4.602316746 ], [ -74.169743774999901, 4.60228368900002 ], [ -74.169908035999896, 4.602242513000077 ], [ -74.170064060999934, 4.602061227000087 ], [ -74.170162653999924, 4.601797596000035 ], [ -74.170170811999881, 4.601558473000056 ], [ -74.170096909999899, 4.601327756000062 ], [ -74.170006609999888, 4.601113495 ], [ -74.169940869999948, 4.600841535000066 ], [ -74.169998363999909, 4.600651988000015 ], [ -74.170080493999961, 4.600561308000062 ], [ -74.170203653999934, 4.600553114000094 ], [ -74.170351519999912, 4.600602544000099 ], [ -74.170597914999874, 4.600684953000078 ], [ -74.170939178999859, 4.600733956000047 ], [ -74.171326539999939, 4.600785217000025 ], [ -74.171765066999896, 4.600840784000093 ], [ -74.171969441999934, 4.600793745000109 ], [ -74.172229134999924, 4.600716833000051 ], [ -74.172667653999966, 4.60053313600004 ], [ -74.173106105999921, 4.600439128000078 ], [ -74.173344544999935, 4.600392087 ], [ -74.173493532999913, 4.60030246600005 ], [ -74.173710643999939, 4.600169975000101 ], [ -74.173838378999932, 4.600110225000043 ], [ -74.174008694999912, 4.600169966000101 ], [ -74.174251366999911, 4.600486129000059 ], [ -74.174319423999947, 4.600610066000099 ], [ -74.174417397999974, 4.600797986000105 ], [ -74.174459979999938, 4.600934705000048 ], [ -74.1745153009999, 4.601075663000076 ], [ -74.174562177999874, 4.601242257000093 ], [ -74.174532340999889, 4.601353345000048 ], [ -74.174408901999897, 4.601511327000063 ], [ -74.17426414099991, 4.601695158000085 ], [ -74.174089604999935, 4.60178478000004 ], [ -74.173889524999908, 4.601900180000085 ], [ -74.173714497999896, 4.602029634000049 ], [ -74.173480985999944, 4.602107748000028 ], [ -74.173122837999884, 4.60235775600002 ], [ -74.172904816999875, 4.602685868000078 ], [ -74.172826985999919, 4.602967151000081 ], [ -74.172889274999918, 4.603154718000058 ], [ -74.173107308999931, 4.603217140000071 ], [ -74.173294161999934, 4.603201529000023 ], [ -74.173621137999902, 4.603154698000056 ], [ -74.173870275999917, 4.603123405000042 ], [ -74.174567092999922, 4.603205376000075 ], [ -74.174870706999911, 4.603306919000127 ], [ -74.175540288999883, 4.603424130000056 ], [ -74.175625937999953, 4.603416288000028 ], [ -74.175711583999941, 4.603299125000104 ], [ -74.175906238999886, 4.602939729000033 ], [ -74.17589842299995, 4.602830337000041 ], [ -74.175832751999934, 4.60254729300007 ], [ -74.175808890999903, 4.602471092000071 ], [ -74.175789392999988, 4.602321094 ], [ -74.175772075999973, 4.602220883000063 ], [ -74.175734913999918, 4.602150616000111 ], [ -74.175750461999954, 4.601947440000087 ], [ -74.175820547999891, 4.601619404000035 ], [ -74.17595284699992, 4.601244404000093 ], [ -74.176287626999908, 4.601025609000109 ], [ -74.176770346999973, 4.600955325000067 ], [ -74.177307539999916, 4.600900577000067 ], [ -74.177572303999881, 4.600955299000065 ], [ -74.177751348999962, 4.601072453000077 ], [ -74.177813638999865, 4.601213056000075 ], [ -74.177766915999911, 4.601439681000086 ], [ -74.177790292999887, 4.601775553000076 ], [ -74.177707818999906, 4.602068985000107 ], [ -74.177704651999917, 4.602080285000065 ], [ -74.177424416999912, 4.602361507000063 ], [ -74.177128552999946, 4.602556853000062 ], [ -74.17673929999998, 4.602783418000067 ], [ -74.176413316999913, 4.603044020000047 ], [ -74.176283261999899, 4.603156453000024 ], [ -74.176225482999911, 4.6032217790001 ], [ -74.17616404799989, 4.603374040000086 ], [ -74.176120628999939, 4.603519025000091 ], [ -74.176112538999902, 4.603623404000112 ], [ -74.176112563999894, 4.604404542000085 ], [ -74.176198223999876, 4.604685751000082 ], [ -74.17643181899993, 4.605013919000056 ], [ -74.176582720999903, 4.605332343000024 ], [ -74.176648237999899, 4.6051776100001 ], [ -74.176705875999872, 4.60512619700002 ], [ -74.176792300999921, 4.60511976700011 ], [ -74.176875487999965, 4.605126191000108 ], [ -74.177137930999919, 4.605174345000096 ], [ -74.17729797099993, 4.6051647360001 ], [ -74.177397204999878, 4.605187189000093 ], [ -74.177470819999925, 4.605187187000093 ], [ -74.177534863, 4.605151874000102 ], [ -74.177605239999949, 4.605078073000035 ], [ -74.177714112999894, 4.604997704000047 ], [ -74.177848532999917, 4.604930256000062 ], [ -74.177992525999926, 4.604901438000075 ], [ -74.178155803999942, 4.604927067000064 ], [ -74.178344630999931, 4.604997682000134 ], [ -74.17849510399995, 4.605094002000021 ], [ -74.178607080999967, 4.605261088000079 ], [ -74.178655156999952, 4.605456918000117 ], [ -74.178639118999868, 4.605720334000063 ], [ -74.178578321999908, 4.605945052 ], [ -74.178472687999957, 4.606086580000079 ], [ -74.178408222999863, 4.606112429000087 ], [ -74.178328694999948, 4.606144353000063 ], [ -74.178216653999911, 4.606166815000057 ], [ -74.178018188999914, 4.606227837000043 ], [ -74.177816555424215, 4.606269653035922 ], [ -74.177816555999939, 4.606272759000118 ], [ -74.177602113999868, 4.606295295000029 ], [ -74.17755728299997, 4.606321003000025 ], [ -74.17749647699992, 4.606330680000026 ], [ -74.177379017999883, 4.606393042000123 ], [ -74.177393378999909, 4.60651775800005 ], [ -74.177377836999966, 4.606884987000059 ], [ -74.177385656999988, 4.607103699000037 ], [ -74.17747124399996, 4.607299033000034 ], [ -74.177603630999897, 4.607455313000086 ], [ -74.177743761999949, 4.607634968000029 ], [ -74.177813864999891, 4.607838071000048 ], [ -74.177844980999893, 4.608088069000038 ], [ -74.17782169199991, 4.608275568000098 ], [ -74.177782707999981, 4.608431853000061 ], [ -74.177673768999938, 4.608658409000066 ], [ -74.17749466099994, 4.608830305000078 ], [ -74.177354542999893, 4.60902557700007 ], [ -74.177284451999967, 4.609197470000082 ], [ -74.177261163999901, 4.609408415000038 ], [ -74.1772922789999, 4.609619429000089 ], [ -74.177346756999967, 4.609791249000095 ], [ -74.17804755899995, 4.610955197000033 ], [ -74.178360824999942, 4.611206173000104 ], [ -74.177738551999965, 4.611752518000101 ], [ -74.176770658999899, 4.612638629000054 ], [ -74.176091379999917, 4.613252065 ], [ -74.175327295999935, 4.613984780000058 ], [ -74.174851967999956, 4.614397291000083 ], [ -74.174712830999908, 4.614516504000088 ], [ -74.174472409999908, 4.614307826000053 ], [ -74.174243389999873, 4.614109036000036 ], [ -74.173999872999886, 4.613937646000066 ], [ -74.173510235999871, 4.613593029000063 ], [ -74.172780044999939, 4.613354493000132 ], [ -74.171914028999964, 4.613388485000103 ], [ -74.171176810999981, 4.613496483000068 ], [ -74.169587584999945, 4.613729289000057 ], [ -74.166964909999919, 4.61410921100005 ], [ -74.16589564199991, 4.614306901000065 ], [ -74.165885719999977, 4.614308807000045 ], [ -74.164479685999908, 4.614508829000075 ], [ -74.164408532999886, 4.614518929000022 ], [ -74.162559677999937, 4.615170645000122 ], [ -74.162496476999948, 4.615187524000097 ], [ -74.16151046599991, 4.615451234000068 ], [ -74.160826168999861, 4.615634291000026 ], [ -74.16018635099995, 4.615754706000041 ], [ -74.159466441999982, 4.615915163000084 ], [ -74.158629701999942, 4.616058177000104 ], [ -74.157594773999932, 4.616234877000069 ], [ -74.157586890999895, 4.616236219000092 ], [ -74.156681742999879, 4.616383469000107 ], [ -74.156107163999948, 4.616476973000117 ], [ -74.155999624999922, 4.616496958000083 ], [ -74.153947570999961, 4.6168782460001 ], [ -74.15298393499998, 4.617039403000112 ], [ -74.152520555999928, 4.616341456 ], [ -74.151833161999988, 4.615320914000032 ], [ -74.150942374999914, 4.614011812000074 ], [ -74.150869955999951, 4.613913083000076 ], [ -74.15027602999993, 4.613103908000094 ], [ -74.148647190999981, 4.610649823000079 ], [ -74.148266656999937, 4.610076450000067 ], [ -74.147651200999917, 4.609149122000078 ], [ -74.147588563999975, 4.609054843000093 ], [ -74.147443163999924, 4.608835635000075 ], [ -74.147393054999952, 4.608765791000069 ], [ -74.147191000999939, 4.608483447000067 ], [ -74.146803147999904, 4.607940298000068 ], [ -74.145815961999944, 4.6065280120001 ], [ -74.145636885999963, 4.606271233000081 ], [ -74.146713258999938, 4.602054965000102 ], [ -74.148853670999927, 4.601152588000046 ], [ -74.15216010099995, 4.599758616000083 ] ] ] ] } },
{ "type": "Feature", "properties": { "UPlCodigo": "UPZ113", "UPlTipo": 1, "UPlNombre": "BAVARIA", "UPlAAdmini": "Dec 067 de 2013 Mod.=Dec 083 de 2016", "UPlArea": 280.683101013, "SHAPE_Leng": 0.06072520993, "SHAPE_Area": 277.00655817500001 }, "geometry": { "type": "MultiPolygon", "coordinates": [ [ [ [ -74.128534283999926, 4.647701616000033 ], [ -74.128325470999883, 4.647487695000097 ], [ -74.128084910999874, 4.647274976000082 ], [ -74.127913674999917, 4.647143615000049 ], [ -74.127186362999865, 4.646569300000047 ], [ -74.126488119999919, 4.6460321330001 ], [ -74.125953019999955, 4.645559800000099 ], [ -74.125655104999908, 4.645238393000062 ], [ -74.125503801999912, 4.644756896000013 ], [ -74.125275713999969, 4.644228077000134 ], [ -74.125117865999954, 4.643728217000076 ], [ -74.124981482999956, 4.643306534000091 ], [ -74.124836089999917, 4.64288012000007 ], [ -74.1247467849999, 4.642637958000106 ], [ -74.12466684099995, 4.642382236000087 ], [ -74.124498222999932, 4.64197375900004 ], [ -74.124441154999928, 4.64171613200004 ], [ -74.12433382699993, 4.641588162000021 ], [ -74.124215025999959, 4.641464642000104 ], [ -74.123889458999926, 4.64102353100011 ], [ -74.123812325999936, 4.640868656000086 ], [ -74.1236346889999, 4.640714342000107 ], [ -74.123101671999933, 4.641027805000109 ], [ -74.123022430999953, 4.640861419000109 ], [ -74.122924393999924, 4.640724481000058 ], [ -74.122247133999934, 4.640162593000108 ], [ -74.122125518999908, 4.64006647300006 ], [ -74.121623361999923, 4.639672597000066 ], [ -74.121490486999946, 4.63956934400005 ], [ -74.120837154999975, 4.639072073000117 ], [ -74.120728558999957, 4.639015148000025 ], [ -74.120313461999899, 4.638730526000101 ], [ -74.120038558999894, 4.638526208000071 ], [ -74.119376991999872, 4.638106689 ], [ -74.11895703699993, 4.637842617000087 ], [ -74.118535043999927, 4.637562444000087 ], [ -74.118298639999907, 4.63741158500004 ], [ -74.118446377999959, 4.637270422000084 ], [ -74.119077164999922, 4.63666770500013 ], [ -74.119245596999917, 4.636500342000049 ], [ -74.119390239999902, 4.636312356000039 ], [ -74.119523621999917, 4.636108056000099 ], [ -74.119630402999874, 4.635855168000136 ], [ -74.122414844999952, 4.629032124000032 ], [ -74.126131990999937, 4.629373503000034 ], [ -74.126249241999957, 4.629384255000035 ], [ -74.126569544999896, 4.629413647000069 ], [ -74.126932144999884, 4.629445438000035 ], [ -74.127290310999939, 4.629476807000055 ], [ -74.128517087999924, 4.629584230000061 ], [ -74.130681739999972, 4.629773815000116 ], [ -74.131594432999904, 4.629887472000105 ], [ -74.134109695999925, 4.630118334000111 ], [ -74.136472514999937, 4.630349889000085 ], [ -74.137774063999885, 4.630478943000105 ], [ -74.137771517999937, 4.630522591000075 ], [ -74.137750195999871, 4.63068462200007 ], [ -74.13771120199992, 4.63090956200003 ], [ -74.1376754529999, 4.631382262000061 ], [ -74.137646203999878, 4.63178324000002 ], [ -74.137555215999981, 4.632577048000064 ], [ -74.137486969999941, 4.633436056000084 ], [ -74.137456223999962, 4.633711719000067 ], [ -74.13743497599998, 4.63390223400002 ], [ -74.13740572899988, 4.634180963000079 ], [ -74.137376483999944, 4.634418943000052 ], [ -74.137301747999885, 4.634865560000057 ], [ -74.137266004999859, 4.635100280000115 ], [ -74.137195135999946, 4.635454518000115 ], [ -74.137177373999904, 4.635543299000089 ], [ -74.137175022999969, 4.635555048000084 ], [ -74.137071046999978, 4.635991884000079 ], [ -74.136973568999906, 4.636438501000084 ], [ -74.136916615999908, 4.63661412900005 ], [ -74.136863097999921, 4.636779169000116 ], [ -74.136856050999953, 4.636798815000054 ], [ -74.136671395999954, 4.63731380400012 ], [ -74.136531681999941, 4.63770499900007 ], [ -74.13636922499991, 4.638156507000035 ], [ -74.136199102999868, 4.638548790000074 ], [ -74.136184023999959, 4.638583561000109 ], [ -74.13617409899993, 4.638605134000029 ], [ -74.136098414999978, 4.638769662000053 ], [ -74.135989075999902, 4.639007357000091 ], [ -74.135712900999877, 4.639501239000099 ], [ -74.13544322599995, 4.639983712000051 ], [ -74.135215788999957, 4.640361866000076 ], [ -74.135142529999939, 4.640479412000031 ], [ -74.134822646999936, 4.640992666000043 ], [ -74.134575714999926, 4.641383859000081 ], [ -74.134273549999889, 4.64182884100004 ], [ -74.133873908999945, 4.642383029000063 ], [ -74.133574994999904, 4.642744881000072 ], [ -74.133126618999938, 4.643330037000082 ], [ -74.1325840209999, 4.643972242000105 ], [ -74.132467786999953, 4.644118018000087 ], [ -74.132342757999922, 4.644274823 ], [ -74.132291601999952, 4.644338983000074 ], [ -74.132241573999892, 4.64438951000008 ], [ -74.132192366999902, 4.644439210000106 ], [ -74.131804239999951, 4.644831228000035 ], [ -74.131748662999968, 4.644884332000077 ], [ -74.1312583939999, 4.645352810000114 ], [ -74.131042195999953, 4.645567824000052 ], [ -74.130702798999934, 4.645905362000091 ], [ -74.130355146999946, 4.646241129000073 ], [ -74.129955508999927, 4.646583417000061 ], [ -74.129474089999889, 4.647009706000071 ], [ -74.129471394999925, 4.647012090000091 ], [ -74.128954792999906, 4.647416312000052 ], [ -74.128568147999971, 4.64773414800006 ], [ -74.128534283999926, 4.647701616000033 ] ] ] ] } },
{ "type": "Feature", "properties": { "UPlCodigo": "UPZ44", "UPlTipo": 1, "UPlNombre": "AMERICAS", "UPlAAdmini": "Dec 425 de 2011 Mod.=Dec 183 de 2017", "UPlArea": 385.70262200299999, "SHAPE_Leng": 0.0793997301, "SHAPE_Area": 380.66544040799999 }, "geometry": { "type": "MultiPolygon", "coordinates": [ [ [ [ -74.137774063999885, 4.630478943000105 ], [ -74.136472514999937, 4.630349889000085 ], [ -74.134109695999925, 4.630118334000111 ], [ -74.131594432999904, 4.629887472000105 ], [ -74.130681739999972, 4.629773815000116 ], [ -74.128517087999924, 4.629584230000061 ], [ -74.127290310999939, 4.629476807000055 ], [ -74.126932144999884, 4.629445438000035 ], [ -74.126569544999896, 4.629413647000069 ], [ -74.126249241999957, 4.629384255000035 ], [ -74.126131990999937, 4.629373503000034 ], [ -74.122414844999952, 4.629032124000032 ], [ -74.123694989999919, 4.625895201 ], [ -74.123970203999946, 4.625243665000101 ], [ -74.12409148199994, 4.624963588000108 ], [ -74.124152646999946, 4.624822349000057 ], [ -74.124502542999934, 4.623924207000085 ], [ -74.124582295999872, 4.623643422000034 ], [ -74.125628062439105, 4.620233534908058 ], [ -74.12628429899992, 4.618093751000041 ], [ -74.128548806999888, 4.610709857000073 ], [ -74.128929590999945, 4.609729865000078 ], [ -74.129060295697769, 4.609326552245419 ], [ -74.129161569999965, 4.609405864000093 ], [ -74.129257986999946, 4.60947726500005 ], [ -74.12935559999994, 4.609547819000026 ], [ -74.129454691999882, 4.609615617000129 ], [ -74.129538370999867, 4.609670635000063 ], [ -74.129934805999895, 4.609909135000079 ], [ -74.130584952999953, 4.610296652000079 ], [ -74.130983501999893, 4.610527877000026 ], [ -74.131539061999945, 4.610858189000089 ], [ -74.132195474999989, 4.61124845900005 ], [ -74.133332285999899, 4.611932102000127 ], [ -74.133367545999889, 4.611954632000037 ], [ -74.133816484999912, 4.612263540000106 ], [ -74.134106228999897, 4.612516723000093 ], [ -74.134436929999907, 4.61285076900011 ], [ -74.135144993999873, 4.613673308000044 ], [ -74.135540230999979, 4.614144571000045 ], [ -74.136398059999905, 4.615167324000113 ], [ -74.137143637999955, 4.616079552000096 ], [ -74.137855647999885, 4.616906608000049 ], [ -74.138347166999964, 4.617484297000063 ], [ -74.139000695999954, 4.61825238300011 ], [ -74.139262151999915, 4.618503305000088 ], [ -74.139476174999942, 4.618606767000033 ], [ -74.139689774999937, 4.61871001900005 ], [ -74.140036322999933, 4.618801622000079 ], [ -74.140339727999901, 4.618881853000056 ], [ -74.140752433999936, 4.618966605000052 ], [ -74.141324406999928, 4.619069862000069 ], [ -74.141856547999893, 4.619130182000086 ], [ -74.141858093999943, 4.619273683000058 ], [ -74.141854498999905, 4.61956676000006 ], [ -74.14186047799987, 4.619809625000082 ], [ -74.14198567999992, 4.620089780000081 ], [ -74.142237916999918, 4.620319584000088 ], [ -74.142762380999883, 4.62079585700006 ], [ -74.143711721999921, 4.621670228000108 ], [ -74.145384707999966, 4.623212398000076 ], [ -74.145441292999934, 4.623233019000095 ], [ -74.145451076999862, 4.623264022000084 ], [ -74.146314138999955, 4.624060069000047 ], [ -74.14636424999992, 4.624080620000059 ], [ -74.14556500199987, 4.624991833000047 ], [ -74.145163406999956, 4.625426004000088 ], [ -74.145112802999932, 4.625480665000081 ], [ -74.14528811199996, 4.626160182000083 ], [ -74.145282756999876, 4.626717096000066 ], [ -74.145748811999894, 4.627191391000052 ], [ -74.146657064, 4.628134754000124 ], [ -74.147418505999937, 4.628928397000065 ], [ -74.148047070999979, 4.629563920000068 ], [ -74.148092182999889, 4.629796262000108 ], [ -74.148406677999887, 4.631416659000065 ], [ -74.146628952999976, 4.631324698000094 ], [ -74.144989218999925, 4.631164158000045 ], [ -74.143309579999951, 4.631003615000084 ], [ -74.141149947999878, 4.630762835000057 ], [ -74.139228551999878, 4.630604326000087 ], [ -74.137845007999985, 4.630486006000067 ], [ -74.137774063999885, 4.630478943000105 ] ] ] ] } },
{ "type": "Feature", "properties": { "UPlCodigo": "UPZ46", "UPlTipo": 1, "UPlNombre": "CASTILLA", "UPlAAdmini": "Dec 429 de 2004 Mod.=Dec 014 dew 2013", "UPlArea": 509.47607157, "SHAPE_Leng": 0.08892227077000001, "SHAPE_Area": 502.79510112499997 }, "geometry": { "type": "MultiPolygon", "coordinates": [ [ [ [ -74.136998907999967, 4.657919525000098 ], [ -74.136910632999857, 4.657794557000061 ], [ -74.13683202799993, 4.657731686000099 ], [ -74.136829822999914, 4.657729915000042 ], [ -74.136820795999967, 4.657722701000067 ], [ -74.136667461999892, 4.657600061000045 ], [ -74.136561266999905, 4.65759451400003 ], [ -74.136471304999915, 4.657589815000085 ], [ -74.136456169999917, 4.657584197000064 ], [ -74.136371142999892, 4.657552633000117 ], [ -74.13632842699991, 4.657536776000049 ], [ -74.136311833999869, 4.657508990000059 ], [ -74.136221941999892, 4.657358458000127 ], [ -74.136115874999916, 4.657159518000098 ], [ -74.136064079999883, 4.656991366000041 ], [ -74.135998346999955, 4.656834445000113 ], [ -74.135902007999888, 4.656684617000062 ], [ -74.13588059899989, 4.65665132200006 ], [ -74.135752576999963, 4.656399344000084 ], [ -74.135725803999961, 4.656334787000072 ], [ -74.135638704999863, 4.656124768000014 ], [ -74.1355661179999, 4.656002111000079 ], [ -74.135552275999913, 4.655978722 ], [ -74.135502736999896, 4.655810639000046 ], [ -74.135500241999949, 4.655806128000028 ], [ -74.135361124999903, 4.655553862000117 ], [ -74.135261400999909, 4.655387526000121 ], [ -74.135212553999864, 4.655306051000041 ], [ -74.135089035999854, 4.655060993000104 ], [ -74.135018939999924, 4.654892490000107 ], [ -74.134885075999946, 4.654718264000079 ], [ -74.134866948999871, 4.654675700000022 ], [ -74.134848116999905, 4.654631478000093 ], [ -74.134771060999924, 4.654450539000043 ], [ -74.134739870999923, 4.654328252000051 ], [ -74.134700614999957, 4.654174340000017 ], [ -74.134651127999959, 4.654068320000038 ], [ -74.134627395999942, 4.654017478000094 ], [ -74.134590612999915, 4.653938673000058 ], [ -74.134478866999913, 4.653803597000072 ], [ -74.134411775999951, 4.653722499000112 ], [ -74.13429951899991, 4.653484432000043 ], [ -74.13424505299993, 4.653282863000063 ], [ -74.134222387999912, 4.653198981000051 ], [ -74.13412096999987, 4.652997851000107 ], [ -74.134013148999927, 4.652766778000084 ], [ -74.133805992999925, 4.652488987000103 ], [ -74.133796799999871, 4.65247666100006 ], [ -74.133783160999897, 4.652443436000064 ], [ -74.133641404999892, 4.652098129000093 ], [ -74.133494596999924, 4.651749611000033 ], [ -74.133268611999966, 4.651232308000131 ], [ -74.133268829999892, 4.650959712000047 ], [ -74.133267145999923, 4.650797 ], [ -74.133216828999934, 4.650544107000121 ], [ -74.133070933999946, 4.650273485000112 ], [ -74.13288315899986, 4.6500479150001 ], [ -74.132702136999896, 4.649955326000077 ], [ -74.132478604999875, 4.649811607000087 ], [ -74.132383592999915, 4.649633497000094 ], [ -74.13235558399991, 4.649539007 ], [ -74.132375086999929, 4.649340069000063 ], [ -74.132395429999917, 4.649225945000035 ], [ -74.132386211999872, 4.649099745000074 ], [ -74.132316752999898, 4.648894591000063 ], [ -74.132209771999925, 4.648876649000089 ], [ -74.132007281999876, 4.648838651000053 ], [ -74.131935324999958, 4.648828162000074 ], [ -74.131756719999927, 4.648802129000051 ], [ -74.131465055999954, 4.648769426000099 ], [ -74.131250594999969, 4.648887003000057 ], [ -74.131015724999898, 4.648999634000051 ], [ -74.130856378999951, 4.648971595000129 ], [ -74.130754774999886, 4.648951637000076 ], [ -74.130612926999873, 4.64892377700008 ], [ -74.13026481699994, 4.648855684000042 ], [ -74.129930502999898, 4.648778627000061 ], [ -74.129674728999959, 4.648709176000088 ], [ -74.129605616999925, 4.648690411000045 ], [ -74.129294741999871, 4.648579524000107 ], [ -74.129174669999983, 4.648526978000023 ], [ -74.129008642999921, 4.648361296000081 ], [ -74.128978311999902, 4.648269136000094 ], [ -74.128985225999941, 4.648202038000049 ], [ -74.128986549999951, 4.648189194000052 ], [ -74.128933131999887, 4.648112568000018 ], [ -74.128911949999917, 4.648018219000027 ], [ -74.128785192999899, 4.647958679000075 ], [ -74.128598872999945, 4.647767794000091 ], [ -74.128568147999971, 4.64773414800006 ], [ -74.128954792999906, 4.647416312000052 ], [ -74.129471394999925, 4.647012090000091 ], [ -74.129474089999889, 4.647009706000071 ], [ -74.129955508999927, 4.646583417000061 ], [ -74.130355146999946, 4.646241129000073 ], [ -74.130702798999934, 4.645905362000091 ], [ -74.131042195999953, 4.645567824000052 ], [ -74.1312583939999, 4.645352810000114 ], [ -74.131748662999968, 4.644884332000077 ], [ -74.131804239999951, 4.644831228000035 ], [ -74.132192366999902, 4.644439210000106 ], [ -74.132241573999892, 4.64438951000008 ], [ -74.132291601999952, 4.644338983000074 ], [ -74.132342757999922, 4.644274823 ], [ -74.132467786999953, 4.644118018000087 ], [ -74.1325840209999, 4.643972242000105 ], [ -74.133126618999938, 4.643330037000082 ], [ -74.133574994999904, 4.642744881000072 ], [ -74.133873908999945, 4.642383029000063 ], [ -74.134273549999889, 4.64182884100004 ], [ -74.134575714999926, 4.641383859000081 ], [ -74.134822646999936, 4.640992666000043 ], [ -74.135142529999939, 4.640479412000031 ], [ -74.135215788999957, 4.640361866000076 ], [ -74.13544322599995, 4.639983712000051 ], [ -74.135712900999877, 4.639501239000099 ], [ -74.135989075999902, 4.639007357000091 ], [ -74.136098414999978, 4.638769662000053 ], [ -74.13617409899993, 4.638605134000029 ], [ -74.136184023999959, 4.638583561000109 ], [ -74.136199102999868, 4.638548790000074 ], [ -74.13636922499991, 4.638156507000035 ], [ -74.136531681999941, 4.63770499900007 ], [ -74.136671395999954, 4.63731380400012 ], [ -74.136856050999953, 4.636798815000054 ], [ -74.136863097999921, 4.636779169000116 ], [ -74.136916615999908, 4.63661412900005 ], [ -74.136973568999906, 4.636438501000084 ], [ -74.137071046999978, 4.635991884000079 ], [ -74.137175022999969, 4.635555048000084 ], [ -74.137177373999904, 4.635543299000089 ], [ -74.137195135999946, 4.635454518000115 ], [ -74.137266004999859, 4.635100280000115 ], [ -74.137301747999885, 4.634865560000057 ], [ -74.137376483999944, 4.634418943000052 ], [ -74.13740572899988, 4.634180963000079 ], [ -74.13743497599998, 4.63390223400002 ], [ -74.137456223999962, 4.633711719000067 ], [ -74.137486969999941, 4.633436056000084 ], [ -74.137555215999981, 4.632577048000064 ], [ -74.137646203999878, 4.63178324000002 ], [ -74.1376754529999, 4.631382262000061 ], [ -74.13771120199992, 4.63090956200003 ], [ -74.137750195999871, 4.63068462200007 ], [ -74.137771517999937, 4.630522591000075 ], [ -74.137774063999885, 4.630478943000105 ], [ -74.137845007999985, 4.630486006000067 ], [ -74.139228551999878, 4.630604326000087 ], [ -74.141149947999878, 4.630762835000057 ], [ -74.143309579999951, 4.631003615000084 ], [ -74.144989218999925, 4.631164158000045 ], [ -74.146628952999976, 4.631324698000094 ], [ -74.148406677999887, 4.631416659000065 ], [ -74.148701336999935, 4.631431890000082 ], [ -74.148795223999883, 4.631437964000051 ], [ -74.148837112999885, 4.631440699000011 ], [ -74.149966111999873, 4.631514387000069 ], [ -74.150644754999888, 4.631550229000103 ], [ -74.151524153999901, 4.631596673000038 ], [ -74.155089290999925, 4.631828145 ], [ -74.155140397999887, 4.631831463000102 ], [ -74.155171938999928, 4.632034920000061 ], [ -74.155182342999893, 4.6322071490001 ], [ -74.155203149999934, 4.632290654000082 ], [ -74.15526556599994, 4.632478542000085 ], [ -74.155299726999928, 4.632576480000106 ], [ -74.155338384999922, 4.632687304000038 ], [ -74.155353989999881, 4.632786466000072 ], [ -74.155416405999901, 4.633010887000077 ], [ -74.155452815999894, 4.63317789700004 ], [ -74.15546321899987, 4.633313593000077 ], [ -74.15545801899988, 4.633438851000049 ], [ -74.155456327999914, 4.633449520000044 ], [ -74.155421609999891, 4.633668490000042 ], [ -74.155389141999947, 4.633742957000075 ], [ -74.155348790999895, 4.633835501000094 ], [ -74.15530197899993, 4.633945102000014 ], [ -74.155284695999924, 4.633966605000106 ], [ -74.155171944999921, 4.634106894000078 ], [ -74.155119930999973, 4.634159084000133 ], [ -74.154738173999917, 4.634546583000132 ], [ -74.154290460999903, 4.635001028000074 ], [ -74.153861599999956, 4.63541830800005 ], [ -74.153894504999926, 4.635494659000061 ], [ -74.154069532999927, 4.635900787000091 ], [ -74.154316453999925, 4.63640934800007 ], [ -74.154563374999924, 4.636917907000049 ], [ -74.154976764999944, 4.63768961500004 ], [ -74.155122196999898, 4.637961106000121 ], [ -74.155160670999877, 4.638038556000046 ], [ -74.156161870999938, 4.640054020000095 ], [ -74.156300510999955, 4.640317198000021 ], [ -74.156287223999925, 4.640327464000071 ], [ -74.156225498999873, 4.640375204000025 ], [ -74.156189745999939, 4.640402816000089 ], [ -74.156306650999923, 4.640578097000025 ], [ -74.156314976999909, 4.640590578000081 ], [ -74.156096892999898, 4.640790781000037 ], [ -74.15553157599993, 4.641270002000075 ], [ -74.154660852999911, 4.642032844000044 ], [ -74.1536764169999, 4.642958214000048 ], [ -74.153572843999953, 4.64305174600006 ], [ -74.15340439699996, 4.643203862000034 ], [ -74.153054656999885, 4.643507058000074 ], [ -74.152578836999865, 4.643984170000026 ], [ -74.152556187999949, 4.64400688100004 ], [ -74.152543028999915, 4.644017681000134 ], [ -74.15229391999992, 4.644222148 ], [ -74.151839952999921, 4.644651625000096 ], [ -74.151667903999893, 4.644814390000063 ], [ -74.151229765999886, 4.6452291890001 ], [ -74.15080755799994, 4.645592757000072 ], [ -74.149560316999953, 4.646691327000019 ], [ -74.14947074199992, 4.646760058000021 ], [ -74.14933986599992, 4.64686047600007 ], [ -74.149145350999902, 4.647049143000048 ], [ -74.148717416999929, 4.647439485000104 ], [ -74.148133870999885, 4.647998977000034 ], [ -74.147057546999903, 4.64903338400009 ], [ -74.14699281599988, 4.649109933000117 ], [ -74.146875997999899, 4.64924807300009 ], [ -74.146769383999953, 4.649349786000068 ], [ -74.146480482999948, 4.649625403000046 ], [ -74.146149693999931, 4.649955697000019 ], [ -74.146029324999915, 4.65008989000002 ], [ -74.145236217999937, 4.65084464500003 ], [ -74.144884369999957, 4.651168531000094 ], [ -74.144427997999941, 4.651630723000055 ], [ -74.14380690199998, 4.652209391000062 ], [ -74.143531599999932, 4.652498058000054 ], [ -74.143191819999885, 4.652794508000069 ], [ -74.142827417999939, 4.65317989600007 ], [ -74.142305433999908, 4.653708566000114 ], [ -74.141748976999878, 4.654261941000071 ], [ -74.140872438999921, 4.655003064000107 ], [ -74.140237193999937, 4.655546555000045 ], [ -74.139528081999885, 4.656104865000055 ], [ -74.138750027999905, 4.65672740500005 ], [ -74.13712497199991, 4.658061419000115 ], [ -74.137112100999914, 4.658072509000055 ], [ -74.136998907999967, 4.657919525000098 ] ] ] ] } },
{ "type": "Feature", "properties": { "UPlCodigo": "UPZ78", "UPlTipo": 1, "UPlNombre": "TINTAL NORTE", "UPlAAdmini": null, "UPlArea": 347.39020152900002, "SHAPE_Leng": 0.09470912542, "SHAPE_Area": 342.82042351500002 }, "geometry": { "type": "MultiPolygon", "coordinates": [ [ [ [ -74.137112100999914, 4.658072509000055 ], [ -74.13712497199991, 4.658061419000115 ], [ -74.138750027999905, 4.65672740500005 ], [ -74.139528081999885, 4.656104865000055 ], [ -74.140237193999937, 4.655546555000045 ], [ -74.140872438999921, 4.655003064000107 ], [ -74.141748976999878, 4.654261941000071 ], [ -74.142305433999908, 4.653708566000114 ], [ -74.142827417999939, 4.65317989600007 ], [ -74.143191819999885, 4.652794508000069 ], [ -74.143531599999932, 4.652498058000054 ], [ -74.14380690199998, 4.652209391000062 ], [ -74.144427997999941, 4.651630723000055 ], [ -74.144884369999957, 4.651168531000094 ], [ -74.145236217999937, 4.65084464500003 ], [ -74.146029324999915, 4.65008989000002 ], [ -74.146149693999931, 4.649955697000019 ], [ -74.146480482999948, 4.649625403000046 ], [ -74.146769383999953, 4.649349786000068 ], [ -74.146875997999899, 4.64924807300009 ], [ -74.14699281599988, 4.649109933000117 ], [ -74.147012511999918, 4.649127924000096 ], [ -74.154496033999948, 4.656224704000111 ], [ -74.158697677999967, 4.651871338000069 ], [ -74.159266381999942, 4.65282768000006 ], [ -74.164596229999873, 4.649846358000032 ], [ -74.167828421999872, 4.653482987000102 ], [ -74.167978202999919, 4.653676625000047 ], [ -74.170313859999908, 4.65630076900001 ], [ -74.170859270999912, 4.656707674000105 ], [ -74.171243852999936, 4.65704812700003 ], [ -74.171172624999912, 4.65702941500008 ], [ -74.170908752999921, 4.656888179000118 ], [ -74.170222649999914, 4.656627888000076 ], [ -74.169765221999896, 4.656371969000039 ], [ -74.169547950999956, 4.656308974000067 ], [ -74.169486699509136, 4.656278715454265 ], [ -74.169436266262494, 4.656276591786268 ], [ -74.16936945399992, 4.656257220000048 ], [ -74.168938426999972, 4.656248472000035 ], [ -74.168755254703797, 4.656265870933174 ], [ -74.167950291914394, 4.656288152188504 ], [ -74.167653894483607, 4.656381714337554 ], [ -74.167637621999901, 4.656392461000047 ], [ -74.167478324999948, 4.656411708000041 ], [ -74.167227726999911, 4.656663161000063 ], [ -74.167215878720128, 4.656670986210409 ], [ -74.167214057057393, 4.656676877942401 ], [ -74.167064900999932, 4.656826543000081 ], [ -74.167026620999962, 4.657283102000109 ], [ -74.166997513022253, 4.657377245465577 ], [ -74.166811934438286, 4.657854078950807 ], [ -74.166705272999934, 4.658389848000111 ], [ -74.166633978999897, 4.658631265000013 ], [ -74.1665899959999, 4.659081473000048 ], [ -74.166475632999948, 4.659655127000084 ], [ -74.166326139999924, 4.659787474000021 ], [ -74.166044674999895, 4.659769825000071 ], [ -74.165824792999913, 4.659628656000026 ], [ -74.165428948999931, 4.659240321000047 ], [ -74.16496272099991, 4.658807846000057 ], [ -74.164707645999854, 4.658675505000121 ], [ -74.164303080999858, 4.658538650000077 ], [ -74.16424064999994, 4.658538652000077 ], [ -74.163869094999924, 4.658538658000078 ], [ -74.163801667999948, 4.658538658000078 ], [ -74.163476217999929, 4.658759353000042 ], [ -74.163273411276776, 4.659152307463676 ], [ -74.16315399101687, 4.659309403661149 ], [ -74.163002013744062, 4.659682825478795 ], [ -74.16294796412258, 4.660181714791856 ], [ -74.162961680999899, 4.660428703000052 ], [ -74.162886925999928, 4.661062869000121 ], [ -74.162930923999923, 4.661676211000065 ], [ -74.162737449999909, 4.662523451000089 ], [ -74.162543900999964, 4.66299124400007 ], [ -74.162121738999943, 4.663123595000096 ], [ -74.161567603999927, 4.663088290000106 ], [ -74.161090128999945, 4.66299410100004 ], [ -74.160856976534248, 4.662882458869833 ], [ -74.160319038501285, 4.662708184790576 ], [ -74.160220435999932, 4.662693584000044 ], [ -74.160125076999947, 4.662660274000041 ], [ -74.159676449999949, 4.662563315000101 ], [ -74.159289920999939, 4.662555798000101 ], [ -74.159129918248539, 4.662532105286443 ], [ -74.158816309197903, 4.662608492616149 ], [ -74.158572204996247, 4.662739168421703 ], [ -74.158572155376646, 4.662739179372144 ], [ -74.158563645999976, 4.662734679000069 ], [ -74.15845078199996, 4.662674837000091 ], [ -74.158271301999946, 4.662567069000056 ], [ -74.158160445999926, 4.66247455700004 ], [ -74.158022844999905, 4.662430420000119 ], [ -74.157877923999905, 4.662349772000107 ], [ -74.157725541999909, 4.662216440000089 ], [ -74.157618908999964, 4.662091797000079 ], [ -74.157583435999967, 4.661995963000054 ], [ -74.157432812999943, 4.661823722000102 ], [ -74.157294366999935, 4.66171539100011 ], [ -74.157079623999934, 4.66153015200006 ], [ -74.156959408999938, 4.661600491000017 ], [ -74.15685721199992, 4.661645337 ], [ -74.156702860999943, 4.661722879000108 ], [ -74.156571242999888, 4.661788698000047 ], [ -74.15652197499989, 4.661869558000076 ], [ -74.156439765999934, 4.662051690000046 ], [ -74.156329615999965, 4.662192861000092 ], [ -74.15628105199994, 4.662328666000048 ], [ -74.156209611999984, 4.662460231000098 ], [ -74.156092210999944, 4.662569483000079 ], [ -74.156034990999927, 4.662744340000069 ], [ -74.155824824999939, 4.662923436000055 ], [ -74.155679480999908, 4.662989467000012 ], [ -74.155523580999883, 4.662947871000123 ], [ -74.155443413999919, 4.662925978000088 ], [ -74.15534487599993, 4.66290429900007 ], [ -74.155256402999981, 4.662951262000137 ], [ -74.155163567999935, 4.663014326000026 ], [ -74.155068549999982, 4.663086642000058 ], [ -74.154992040999872, 4.663183817000105 ], [ -74.154920530999902, 4.663308462000115 ], [ -74.154833395999887, 4.663463121000033 ], [ -74.154744430999898, 4.663652173000044 ], [ -74.15472465299986, 4.663897652000104 ], [ -74.154682703999939, 4.664015023000045 ], [ -74.154647936999908, 4.66415534700011 ], [ -74.154564810999958, 4.664266363000058 ], [ -74.154422494999906, 4.664208596000075 ], [ -74.154344156999912, 4.66415450100004 ], [ -74.154012646999931, 4.663952525000115 ], [ -74.15364432699991, 4.663904432000043 ], [ -74.153450347999936, 4.663922935000064 ], [ -74.153192319999903, 4.663926183000067 ], [ -74.153060348999915, 4.663969121000067 ], [ -74.152889597999902, 4.664010293 ], [ -74.152604893999893, 4.664075687000091 ], [ -74.152470599999873, 4.664116366000082 ], [ -74.152318006999863, 4.664150405000056 ], [ -74.152140356999908, 4.664193977000108 ], [ -74.151946800999966, 4.664242140000097 ], [ -74.151804976999955, 4.664223355000052 ], [ -74.151660969999952, 4.664218270000076 ], [ -74.15140097099993, 4.664249059000047 ], [ -74.151132737999944, 4.664172223000085 ], [ -74.150905608999977, 4.664087972000042 ], [ -74.150737530999919, 4.663987054000041 ], [ -74.150534965999952, 4.663858877000093 ], [ -74.15024969999989, 4.663699767000073 ], [ -74.149958590999958, 4.663618693000027 ], [ -74.149655094999886, 4.66346212500004 ], [ -74.14942916399994, 4.663293059000084 ], [ -74.149045360999892, 4.66310527500009 ], [ -74.148617214999902, 4.662842635000031 ], [ -74.148393746999972, 4.662694189000094 ], [ -74.148131708999969, 4.662562336000109 ], [ -74.147888181999889, 4.662453014000034 ], [ -74.147545622999971, 4.662271798000051 ], [ -74.147309344999954, 4.662194467000047 ], [ -74.147038507999937, 4.662090158000032 ], [ -74.146814264999946, 4.662056327000075 ], [ -74.146644920999876, 4.662033233000029 ], [ -74.146482686999946, 4.662028430000076 ], [ -74.146359232999956, 4.662018541000057 ], [ -74.146285682999903, 4.661982737000114 ], [ -74.146182146999948, 4.66192221200008 ], [ -74.146124714999914, 4.661897708000096 ], [ -74.146071292999935, 4.661825108000039 ], [ -74.146018224999892, 4.661784501000055 ], [ -74.145924262999927, 4.661760489000111 ], [ -74.145808339999931, 4.661803213 ], [ -74.145626606999912, 4.661887956000088 ], [ -74.145529263999933, 4.661953350000081 ], [ -74.145396942999909, 4.661968815000117 ], [ -74.145298405999924, 4.661942542000075 ], [ -74.14525195199991, 4.661881243000066 ], [ -74.145206135999928, 4.661691625000097 ], [ -74.145066706999856, 4.661527713000035 ], [ -74.145015749999899, 4.661441979000047 ], [ -74.144948815999953, 4.661351442000106 ], [ -74.144881599999906, 4.661281527000094 ], [ -74.14480488199986, 4.661227501000065 ], [ -74.144683328999932, 4.661259703000065 ], [ -74.144608298999941, 4.66137057700009 ], [ -74.144560504999887, 4.661491197000123 ], [ -74.144531365999882, 4.661589146000056 ], [ -74.144483503999922, 4.661712028000098 ], [ -74.144358993999916, 4.661780810000016 ], [ -74.144198376999952, 4.661826077000031 ], [ -74.144084988999893, 4.661780525000081 ], [ -74.143989547999908, 4.661753617000075 ], [ -74.143891785999898, 4.661731227000088 ], [ -74.143763686999961, 4.661744997000072 ], [ -74.143628197999931, 4.661788357000107 ], [ -74.143499463999945, 4.661836447 ], [ -74.143414298999915, 4.661876277000099 ], [ -74.143340183999911, 4.661936796000044 ], [ -74.143275076999942, 4.661999790000015 ], [ -74.143191671999972, 4.662071609000096 ], [ -74.143126424999892, 4.662143785000028 ], [ -74.143034923999963, 4.662281845000082 ], [ -74.142891548999913, 4.662384738000069 ], [ -74.142775977999946, 4.662462843000048 ], [ -74.142644710999917, 4.662526894000019 ], [ -74.142546311999951, 4.662669475000092 ], [ -74.142378514999919, 4.662730630000089 ], [ -74.142196499999869, 4.662823635000057 ], [ -74.142053970999982, 4.662878364000056 ], [ -74.141885681999909, 4.662966990000106 ], [ -74.141716196999923, 4.662996154000032 ], [ -74.141519613999904, 4.663008580000083 ], [ -74.141273269999957, 4.662995017000116 ], [ -74.141089709999861, 4.662916201000078 ], [ -74.140944930999879, 4.662840281000102 ], [ -74.140857797999857, 4.662733359000049 ], [ -74.140787345999897, 4.662656240000063 ], [ -74.140730122999869, 4.662593599000031 ], [ -74.140587670999892, 4.662387172000093 ], [ -74.140411360999877, 4.662154897000059 ], [ -74.140303749999944, 4.661914714000082 ], [ -74.140234283999874, 4.661711890000086 ], [ -74.140103301999957, 4.6616294020001 ], [ -74.139999907999936, 4.661538087000094 ], [ -74.139882368999892, 4.661467323000101 ], [ -74.139829724999885, 4.661347267000027 ], [ -74.139814594999876, 4.661170573000062 ], [ -74.139800519999952, 4.661060404000095 ], [ -74.139816993999901, 4.660907157000027 ], [ -74.13978736299994, 4.660773755000092 ], [ -74.139737674999907, 4.660614784000083 ], [ -74.139560309999894, 4.660572692000065 ], [ -74.139384490999902, 4.660574102000092 ], [ -74.139279618999936, 4.660565482 ], [ -74.139033066999872, 4.660430523000025 ], [ -74.138867880999967, 4.660219080000028 ], [ -74.138695090999889, 4.66004640900004 ], [ -74.138550595999916, 4.659954458000071 ], [ -74.13844065799988, 4.659847042000065 ], [ -74.138249428999956, 4.65968559800003 ], [ -74.138098458999906, 4.659572955000035 ], [ -74.137997882999926, 4.659449719000053 ], [ -74.13794453499996, 4.65936631500008 ], [ -74.137798701999969, 4.659219351000088 ], [ -74.137645831999933, 4.65908375500006 ], [ -74.137496830999865, 4.658989473000075 ], [ -74.137414763999914, 4.658981137000096 ], [ -74.137176446999916, 4.658901261000059 ], [ -74.137124785999902, 4.658852248000089 ], [ -74.137077982999941, 4.658789536000052 ], [ -74.137045820999944, 4.658669832 ], [ -74.13712099299994, 4.658552039000119 ], [ -74.13717673999993, 4.658369698000042 ], [ -74.137190890999946, 4.65821426300006 ], [ -74.137133531999908, 4.658100984000013 ], [ -74.137112100999914, 4.658072509000055 ] ] ] ] } }
]
}
